{
"type": "FeatureCollection",
"name": "cali_comunas",
"crs": { "type": "name", "properties": { "name": "urn:ogc:def:crs:OGC:1.3:CRS84" } },
"features": [
{ "type": "Feature", "properties": { "comuna": 6, "nombre": "Comuna 6" }, "geometry": { "type": "Polygon", "coordinates": [ [ [ -76.491381851946798, 3.505582328815901 ], [ -76.491519208939167, 3.503544508452002 ], [ -76.49147446952415, 3.501067006409343 ], [ -76.491339551553835, 3.500488307240865 ], [ -76.491024655503324, 3.500054306068408 ], [ -76.489908923610898, 3.499339875153245 ], [ -76.48565126603431, 3.497357179721408 ], [ -76.484803810741496, 3.496605120076343 ], [ -76.484069786633015, 3.495529680854724 ], [ -76.483280397450514, 3.49349158058586 ], [ -76.482836635259844, 3.489438877728883 ], [ -76.481763000897502, 3.487427551613564 ], [ -76.48144310469516, 3.48430215928706 ], [ -76.481146299049144, 3.483081460666503 ], [ -76.48047151345007, 3.482339941781987 ], [ -76.479292811079674, 3.481724952555803 ], [ -76.478896932491864, 3.481336102001661 ], [ -76.478483198797306, 3.47973562597435 ], [ -76.478465729792632, 3.478292435688464 ], [ -76.47826479793261, 3.477525924304885 ], [ -76.477851227029845, 3.476866174187692 ], [ -76.47598226308007, 3.474888836587182 ], [ -76.475577460611106, 3.473912256304002 ], [ -76.475604866341342, 3.470449186339288 ], [ -76.475380021114475, 3.469535920713761 ], [ -76.474867064155049, 3.468558106176484 ], [ -76.484402909574314, 3.465522898142703 ], [ -76.489415861149794, 3.481608495808034 ], [ -76.490342463467812, 3.483715369254931 ], [ -76.491278195253841, 3.484592536395151 ], [ -76.492097000020095, 3.484981424396007 ], [ -76.495381274686096, 3.486021578985545 ], [ -76.497072925202048, 3.486338213208191 ], [ -76.503193253629178, 3.488397918004048 ], [ -76.502238589665083, 3.490415713016506 ], [ -76.501568902029248, 3.490992413798175 ], [ -76.500492931827893, 3.492570820577876 ], [ -76.498599954441346, 3.495586067749965 ], [ -76.49741375640896, 3.497821534530793 ], [ -76.497252281118008, 3.498512804998251 ], [ -76.497224153006357, 3.500076897217303 ], [ -76.496965582425901, 3.500550881091554 ], [ -76.49637332463999, 3.500678172190985 ], [ -76.496305065329167, 3.50085204424876 ], [ -76.496829409999279, 3.501631615608196 ], [ -76.496809903563303, 3.501938513040073 ], [ -76.495669863121634, 3.501833374907721 ], [ -76.494915898969666, 3.502320926106035 ], [ -76.494898545941012, 3.502568372799627 ], [ -76.4954661568528, 3.502498768643476 ], [ -76.495647798167795, 3.502748401503739 ], [ -76.494612424976182, 3.504079832034944 ], [ -76.494461543063167, 3.503993669964586 ], [ -76.494469509085548, 3.503387563610409 ], [ -76.494071713667552, 3.503518868697531 ], [ -76.494005808891274, 3.50425755992122 ], [ -76.494434482337041, 3.505149627031158 ], [ -76.494256984964295, 3.505533966982391 ], [ -76.493172685963145, 3.505521885235887 ], [ -76.49175580241652, 3.505871133473367 ], [ -76.491381851946798, 3.505582328815901 ] ] ] } },
{ "type": "Feature", "properties": { "comuna": 4, "nombre": "Comuna 4" }, "geometry": { "type": "Polygon", "coordinates": [ [ [ -76.517907769186152, 3.453661300415472 ], [ -76.518594029135187, 3.453893827333934 ], [ -76.519052018818371, 3.454634943572047 ], [ -76.521315010344168, 3.462296911040174 ], [ -76.520641194337998, 3.462496555567428 ], [ -76.520002283967884, 3.463147529893974 ], [ -76.519597287940243, 3.464277745878725 ], [ -76.519012361405288, 3.464964891874646 ], [ -76.516888462029101, 3.469567089855262 ], [ -76.516231513668828, 3.470661116647647 ], [ -76.514755664990133, 3.472614065691763 ], [ -76.513882727431479, 3.474069752657469 ], [ -76.511092993236488, 3.477686311543983 ], [ -76.509052766014548, 3.48099018052477 ], [ -76.507952187467808, 3.481926529086262 ], [ -76.506655929063413, 3.482362959117956 ], [ -76.504127834775687, 3.483680533780539 ], [ -76.50393003530418, 3.484380789729773 ], [ -76.503880477951739, 3.487461901434112 ], [ -76.503620911410962, 3.488107814171193 ], [ -76.503193253629178, 3.488397918004048 ], [ -76.497072925202048, 3.486338213208191 ], [ -76.495272538706061, 3.485981312336496 ], [ -76.49683926856595, 3.483245840323337 ], [ -76.498702128777495, 3.480958403440542 ], [ -76.502760620016048, 3.477884515122991 ], [ -76.504443451900215, 3.476031064062562 ], [ -76.50377768950689, 3.474855549662114 ], [ -76.502869163310791, 3.471618446224429 ], [ -76.506171579744759, 3.470587956810057 ], [ -76.501630229625533, 3.460053543849055 ], [ -76.515886602786281, 3.455553123307173 ], [ -76.516398151021832, 3.455227674611461 ], [ -76.517215254198547, 3.45393695805134 ], [ -76.517907769186152, 3.453661300415472 ] ] ] } },
{ "type": "Feature", "properties": { "comuna": 5, "nombre": "Comuna 5" }, "geometry": { "type": "Polygon", "coordinates": [ [ [ -76.501624784878288, 3.46005529516433 ], [ -76.506171579744759, 3.470587956810057 ], [ -76.502869163310791, 3.471618446224429 ], [ -76.50377768950689, 3.474855549662114 ], [ -76.504443451900215, 3.476031064062562 ], [ -76.502760620016048, 3.477884515122991 ], [ -76.498702128777495, 3.480958403440542 ], [ -76.49683926856595, 3.483245840323337 ], [ -76.495272538706061, 3.485981312336496 ], [ -76.491503138838027, 3.484728188683491 ], [ -76.490648368926088, 3.484068037213948 ], [ -76.49006356311908, 3.483272284470694 ], [ -76.489415861149794, 3.481608495808034 ], [ -76.484402909574314, 3.465522898142703 ], [ -76.501624784878288, 3.46005529516433 ] ] ] } },
{ "type": "Feature", "properties": { "comuna": 7, "nombre": "Comuna 7" }, "geometry": { "type": "Polygon", "coordinates": [ [ [ -76.473997650544874, 3.466059774946543 ], [ -76.475200713709825, 3.464038383546209 ], [ -76.477018563238417, 3.462031283573179 ], [ -76.477261603162859, 3.461244661252671 ], [ -76.477207702973701, 3.460494172325993 ], [ -76.476407137671544, 3.458269753938695 ], [ -76.476389353554367, 3.456470399763946 ], [ -76.476191550638831, 3.455168333964366 ], [ -76.475606875593698, 3.453522626320841 ], [ -76.475922128700034, 3.450804667400319 ], [ -76.475680345610286, 3.449942997072981 ], [ -76.47678502492009, 3.44931059927319 ], [ -76.477191009352254, 3.448729394746155 ], [ -76.47768655965713, 3.448366463818953 ], [ -76.48010592528469, 3.447211918710777 ], [ -76.480943514463789, 3.446099794464422 ], [ -76.481384543243166, 3.444933432304166 ], [ -76.481591518218153, 3.444734532601075 ], [ -76.484086914502413, 3.444481489039803 ], [ -76.484113334669175, 3.444253861920541 ], [ -76.486863380925215, 3.443283982108514 ], [ -76.48937137935421, 3.444373825035412 ], [ -76.490863488294224, 3.443920503654307 ], [ -76.489739455344406, 3.446381072742895 ], [ -76.486398713021643, 3.452294225525117 ], [ -76.491371425608392, 3.452819100605328 ], [ -76.495656076911104, 3.452574546827251 ], [ -76.500900299049306, 3.452792907051818 ], [ -76.509528696095089, 3.453983018271522 ], [ -76.510321666720046, 3.457319745430824 ], [ -76.510063451668032, 3.457402466418619 ], [ -76.474867064155049, 3.468558106176484 ], [ -76.47393215288146, 3.466621974261881 ], [ -76.473997650544874, 3.466059774946543 ] ] ] } },
{ "type": "Feature", "properties": { "comuna": 8, "nombre": "Comuna 8" }, "geometry": { "type": "Polygon", "coordinates": [ [ [ -76.509528696095089, 3.453983018271522 ], [ -76.500900299049306, 3.452792907051818 ], [ -76.495656076911104, 3.452574546827251 ], [ -76.491371425608392, 3.452819100605328 ], [ -76.486398713021643, 3.452294225525117 ], [ -76.489739455344406, 3.446381072742895 ], [ -76.490863488294224, 3.443920503654307 ], [ -76.493252898853768, 3.4430844364111 ], [ -76.493020212584213, 3.442310027292728 ], [ -76.495656260786106, 3.441387964134214 ], [ -76.495315632691756, 3.440451006685532 ], [ -76.497502648699722, 3.439680181744221 ], [ -76.497748215267094, 3.440396832871914 ], [ -76.497473013224578, 3.442864510963315 ], [ -76.498149817671774, 3.442961638519374 ], [ -76.498162254217377, 3.442782754875115 ], [ -76.502687616837477, 3.443353009361944 ], [ -76.501589799996665, 3.440161882096313 ], [ -76.508414023337281, 3.43782738844485 ], [ -76.507929150338057, 3.435966446831896 ], [ -76.509696232055035, 3.435506957290941 ], [ -76.509547532385028, 3.434889091770313 ], [ -76.511264676347409, 3.434421902230967 ], [ -76.513012873390323, 3.436617888557123 ], [ -76.519380735055705, 3.435669307081509 ], [ -76.517941883184704, 3.449075887571339 ], [ -76.518185640661244, 3.451674411637443 ], [ -76.519052018818371, 3.454634943572047 ], [ -76.51852492295663, 3.4538454727001 ], [ -76.518102401696424, 3.45367533855182 ], [ -76.517641374047273, 3.453702115855964 ], [ -76.517133914857098, 3.454021437513159 ], [ -76.516455572907986, 3.455157791513679 ], [ -76.516101565320767, 3.455460514076538 ], [ -76.510321666720046, 3.457319745430824 ], [ -76.509528696095089, 3.453983018271522 ] ] ] } },
{ "type": "Feature", "properties": { "comuna": 12, "nombre": "Comuna 12" }, "geometry": { "type": "Polygon", "coordinates": [ [ [ -76.490821604541281, 3.443933224353553 ], [ -76.495755309654584, 3.434198029222442 ], [ -76.499112346532783, 3.428013318957002 ], [ -76.502733024877926, 3.424566741838112 ], [ -76.503419373914355, 3.425143502772857 ], [ -76.505932321751885, 3.427991266822339 ], [ -76.507400921966166, 3.427298980401127 ], [ -76.507705041155333, 3.428076700836605 ], [ -76.508793493370689, 3.429365890377394 ], [ -76.510407216094606, 3.4307513033358 ], [ -76.50973803898772, 3.432033347227748 ], [ -76.510808749137325, 3.432367988378165 ], [ -76.511726479489624, 3.43292866547059 ], [ -76.510863497611197, 3.434003473391345 ], [ -76.511264676347409, 3.434421902230967 ], [ -76.509547532385028, 3.434889091770313 ], [ -76.509696232055035, 3.435506957290941 ], [ -76.507929150338057, 3.435966446831896 ], [ -76.508414023337281, 3.43782738844485 ], [ -76.501589799996665, 3.440161882096313 ], [ -76.502687616837477, 3.443353009361944 ], [ -76.498162254217377, 3.442782754875115 ], [ -76.498149817671774, 3.442961638519374 ], [ -76.497473013224578, 3.442864510963315 ], [ -76.497748215267094, 3.440396832871914 ], [ -76.497502648699722, 3.439680181744221 ], [ -76.495315632691756, 3.440451006685532 ], [ -76.495656260786106, 3.441387964134214 ], [ -76.493020212584213, 3.442310027292728 ], [ -76.493252898853768, 3.4430844364111 ], [ -76.490821604541281, 3.443933224353553 ] ] ] } },
{ "type": "Feature", "properties": { "comuna": 9, "nombre": "Comuna 9" }, "geometry": { "type": "Polygon", "coordinates": [ [ [ -76.517941883184704, 3.449075887571339 ], [ -76.519380735055705, 3.435669307081509 ], [ -76.521821846284411, 3.435316510365399 ], [ -76.523090568111172, 3.43490971094355 ], [ -76.527437171727655, 3.431988253901419 ], [ -76.529794118773026, 3.432080018650446 ], [ -76.529857086834838, 3.432342239728787 ], [ -76.534274925433607, 3.433744007943963 ], [ -76.538600826592656, 3.437782124921345 ], [ -76.536891595461412, 3.439785784706717 ], [ -76.536047830271301, 3.440554108778555 ], [ -76.533267946031785, 3.441986678194843 ], [ -76.530798740878964, 3.442618851762569 ], [ -76.528815435699016, 3.442698769269263 ], [ -76.526003778249546, 3.442554513629271 ], [ -76.527222139010547, 3.447112910530763 ], [ -76.5282524847714, 3.450116618119331 ], [ -76.522079225450057, 3.452156196911479 ], [ -76.518556741611789, 3.452986988463095 ], [ -76.518127117888085, 3.451341013451391 ], [ -76.517941883184704, 3.449075887571339 ] ] ] } },
{ "type": "Feature", "properties": { "comuna": 13, "nombre": "Comuna 13" }, "geometry": { "type": "Polygon", "coordinates": [ [ [ -76.486934198210292, 3.443324657074433 ], [ -76.484113334669175, 3.444253861920541 ], [ -76.483793566751771, 3.428717815127547 ], [ -76.483885821479021, 3.42789198121845 ], [ -76.487490012411143, 3.419565534551821 ], [ -76.487927657434312, 3.419330571365458 ], [ -76.488887935611189, 3.419447021573204 ], [ -76.490242637157209, 3.418646361292234 ], [ -76.491548017173088, 3.418221841383956 ], [ -76.492194086070242, 3.417848388081779 ], [ -76.493365872718513, 3.416717194258808 ], [ -76.49508856118176, 3.416608221549397 ], [ -76.500490199212607, 3.411462073821728 ], [ -76.504556737392122, 3.415766416630431 ], [ -76.503045004420812, 3.41721299459815 ], [ -76.506547610156076, 3.420888929684564 ], [ -76.499112346532783, 3.428013318957002 ], [ -76.494810380235535, 3.436008580270893 ], [ -76.490821604541281, 3.443933224353553 ], [ -76.48937137935421, 3.444373825035412 ], [ -76.486934198210292, 3.443324657074433 ] ] ] } },
{ "type": "Feature", "properties": { "comuna": 11, "nombre": "Comuna 11" }, "geometry": { "type": "Polygon", "coordinates": [ [ [ -76.507705041155333, 3.428076700836605 ], [ -76.507400921966166, 3.427298980401127 ], [ -76.505932321751885, 3.427991266822339 ], [ -76.503419373914355, 3.425143502772857 ], [ -76.502733024877926, 3.424566741838112 ], [ -76.521582459679593, 3.406371883719688 ], [ -76.522106040710753, 3.40358868338373 ], [ -76.522607123377966, 3.40514324875765 ], [ -76.521606004282035, 3.413747033585019 ], [ -76.52124246020324, 3.419568182606495 ], [ -76.519380735055705, 3.435669307081509 ], [ -76.513012873390323, 3.436617888557123 ], [ -76.511942250007309, 3.435125878827552 ], [ -76.510863497611197, 3.434003473391345 ], [ -76.511726479489624, 3.43292866547059 ], [ -76.510808749137325, 3.432367988378165 ], [ -76.50973803898772, 3.432033347227748 ], [ -76.510407216094606, 3.4307513033358 ], [ -76.508793493370689, 3.429365890377394 ], [ -76.507705041155333, 3.428076700836605 ] ] ] } },
{ "type": "Feature", "properties": { "comuna": 10, "nombre": "Comuna 10" }, "geometry": { "type": "Polygon", "coordinates": [ [ [ -76.519380735055705, 3.435669307081509 ], [ -76.52124246020324, 3.419568182606495 ], [ -76.521606004282035, 3.413747033585019 ], [ -76.522557599978455, 3.405517571626549 ], [ -76.524991045451316, 3.405794733224334 ], [ -76.538714954688672, 3.410286805802208 ], [ -76.534032504101361, 3.424665867229809 ], [ -76.533276709040678, 3.424430732046722 ], [ -76.533042726602005, 3.425135991119017 ], [ -76.531567128212615, 3.424656679836052 ], [ -76.530667187847158, 3.427423463878926 ], [ -76.530199310319801, 3.427333015884245 ], [ -76.529812334541091, 3.42849940470754 ], [ -76.529767335693933, 3.428662156452554 ], [ -76.53028919032721, 3.428924406398751 ], [ -76.528948465123335, 3.429855644089945 ], [ -76.529452295637213, 3.430579032703763 ], [ -76.52332451872833, 3.434801223284417 ], [ -76.522163769052341, 3.435244198741651 ], [ -76.519380735055705, 3.435669307081509 ] ] ] } },
{ "type": "Feature", "properties": { "comuna": 20, "nombre": "Comuna 20" }, "geometry": { "type": "Polygon", "coordinates": [ [ [ -76.552261615317221, 3.429513327854426 ], [ -76.551136963822714, 3.42897070364122 ], [ -76.551197395557836, 3.428156197385544 ], [ -76.550432840641008, 3.427952460713007 ], [ -76.550273458016235, 3.427096083658276 ], [ -76.550921141134779, 3.426999518761412 ], [ -76.552027905309728, 3.42594165258182 ], [ -76.552810679273634, 3.423965140463735 ], [ -76.553327781956114, 3.420030851584474 ], [ -76.554450601035867, 3.417464865055431 ], [ -76.555589582926032, 3.413135345615043 ], [ -76.555636486055135, 3.411882228616113 ], [ -76.556253712952056, 3.41231238858582 ], [ -76.55662419936381, 3.411945864061579 ], [ -76.557235503728933, 3.41304319131837 ], [ -76.557523390733749, 3.413181516418155 ], [ -76.558070502625739, 3.413143497116804 ], [ -76.558606121142176, 3.413819534450757 ], [ -76.558933009262091, 3.413858734385656 ], [ -76.55982192919268, 3.413542939935743 ], [ -76.560344949395471, 3.413662253697164 ], [ -76.560952863267104, 3.413205828867342 ], [ -76.561373233640452, 3.41313869980604 ], [ -76.561918291525345, 3.412308490480071 ], [ -76.563161475442016, 3.411458519363471 ], [ -76.563891141073341, 3.411246216857887 ], [ -76.564859287621076, 3.410708913663408 ], [ -76.565635072865433, 3.410822628384817 ], [ -76.56614170487191, 3.412294862649527 ], [ -76.564084169575395, 3.412602103939047 ], [ -76.563554218066884, 3.41281401057749 ], [ -76.563751203676105, 3.413426586763283 ], [ -76.564293118577822, 3.414246916407471 ], [ -76.564040418371832, 3.415114318628177 ], [ -76.565760918980061, 3.415456320217776 ], [ -76.566650928932276, 3.416165171887724 ], [ -76.567305136684539, 3.417286181368325 ], [ -76.568225862938547, 3.417047090211379 ], [ -76.568313223327308, 3.417167573293668 ], [ -76.56752985957398, 3.4177244539223 ], [ -76.566109343753183, 3.419140277571735 ], [ -76.566714584736701, 3.421141035331628 ], [ -76.566593829234975, 3.421490176728079 ], [ -76.566990824115223, 3.422095254895744 ], [ -76.566452978744223, 3.422058150310543 ], [ -76.56604485707183, 3.422241444648633 ], [ -76.565720268582197, 3.423053185859618 ], [ -76.56493995863012, 3.42300211036376 ], [ -76.56438018138752, 3.423548550753687 ], [ -76.56449766882622, 3.424082446581172 ], [ -76.564054911482913, 3.423975576760447 ], [ -76.563664426871483, 3.424363033566268 ], [ -76.563198199884027, 3.424398510772523 ], [ -76.562904294462911, 3.424235684002921 ], [ -76.562465631480677, 3.424756688303638 ], [ -76.562172924867255, 3.424809223092339 ], [ -76.562146183770324, 3.425124060102875 ], [ -76.561321399459487, 3.425032960335606 ], [ -76.561089996240497, 3.42393814408121 ], [ -76.559971799464449, 3.423637773581232 ], [ -76.559383282228183, 3.424140618311083 ], [ -76.559715504951882, 3.424554813243381 ], [ -76.559612537814488, 3.425196171348083 ], [ -76.558946239311609, 3.425149620765361 ], [ -76.558374011863322, 3.425399594597011 ], [ -76.557751785308341, 3.426410792910295 ], [ -76.557736588568275, 3.426957732334259 ], [ -76.556971537102839, 3.428220498769884 ], [ -76.557083738735841, 3.428429572150595 ], [ -76.556819175194576, 3.428661176216548 ], [ -76.55506232743582, 3.428591461394486 ], [ -76.55496110109442, 3.427207693761891 ], [ -76.554150997308412, 3.427117684926766 ], [ -76.553836022862839, 3.427795732127008 ], [ -76.554357818752678, 3.428338710244512 ], [ -76.554123574500252, 3.428964036535286 ], [ -76.553682948590577, 3.42901602778976 ], [ -76.552530582946858, 3.428473716331618 ], [ -76.552606628378456, 3.429234318166881 ], [ -76.552261615317221, 3.429513327854426 ] ] ] } },
{ "type": "Feature", "properties": { "comuna": 16, "nombre": "Comuna 16" }, "geometry": { "type": "Polygon", "coordinates": [ [ [ -76.514576482405843, 3.395393956224263 ], [ -76.510625907663965, 3.390079156520825 ], [ -76.510010904147165, 3.388327394219887 ], [ -76.510529705551335, 3.388446933388868 ], [ -76.511414291029169, 3.388144989440581 ], [ -76.512269455448859, 3.388375157170556 ], [ -76.514142885326578, 3.389525190747003 ], [ -76.514709074128277, 3.389686215990449 ], [ -76.514899956550749, 3.389635541593732 ], [ -76.515175434870159, 3.389123205161069 ], [ -76.515527030029162, 3.389079997466492 ], [ -76.516117953703898, 3.389193844773284 ], [ -76.51664951905444, 3.389548213409701 ], [ -76.518135480461055, 3.389856932815296 ], [ -76.518553528593159, 3.39026075498118 ], [ -76.519017799060279, 3.390287353621343 ], [ -76.519503679828688, 3.389989004618438 ], [ -76.519908555714849, 3.39008849526056 ], [ -76.520655297279703, 3.390694360633977 ], [ -76.522076916624073, 3.390278531449019 ], [ -76.523111672441885, 3.389491953672731 ], [ -76.523291682264855, 3.388587769997466 ], [ -76.523741551655888, 3.388578759208694 ], [ -76.52389451812239, 3.388425056550301 ], [ -76.523354731186771, 3.387593159098918 ], [ -76.524572087163889, 3.387254607316286 ], [ -76.523769883453127, 3.394578657921934 ], [ -76.523508951386361, 3.398891330620499 ], [ -76.52299654965924, 3.401900424686349 ], [ -76.52219599094046, 3.403250395314192 ], [ -76.521582459679593, 3.406371883719688 ], [ -76.506547610156076, 3.420888929684564 ], [ -76.503045004420812, 3.41721299459815 ], [ -76.504556737392122, 3.415766416630431 ], [ -76.500490199212607, 3.411462073821728 ], [ -76.516183858994538, 3.39709864108795 ], [ -76.514576482405843, 3.395393956224263 ] ] ] } },
{ "type": "Feature", "properties": { "comuna": 17, "nombre": "Comuna 17" }, "geometry": { "type": "Polygon", "coordinates": [ [ [ -76.522557599978455, 3.405517571626549 ], [ -76.522106040710753, 3.40358868338373 ], [ -76.522337543638244, 3.402940295389818 ], [ -76.522950134696288, 3.402065969167307 ], [ -76.523508951386361, 3.398891330620499 ], [ -76.523769883453127, 3.394578657921934 ], [ -76.524572087163889, 3.387254607316286 ], [ -76.523354731186771, 3.387593159098918 ], [ -76.52389451812239, 3.388425056550301 ], [ -76.523741551655888, 3.388578759208694 ], [ -76.523291682264855, 3.388587769997466 ], [ -76.523111672441885, 3.389491953672731 ], [ -76.522076916624073, 3.390278531449019 ], [ -76.520655297279703, 3.390694360633977 ], [ -76.520043512846314, 3.390151798871814 ], [ -76.519548666745465, 3.389989007380116 ], [ -76.519017799060279, 3.390287353621343 ], [ -76.518553528593159, 3.39026075498118 ], [ -76.518135480461055, 3.389856932815296 ], [ -76.51664951905444, 3.389548213409701 ], [ -76.516117953703898, 3.389193844773284 ], [ -76.515527030029162, 3.389079997466492 ], [ -76.515175434870159, 3.389123205161069 ], [ -76.514899956550749, 3.389635541593732 ], [ -76.514709074128277, 3.389686215990449 ], [ -76.513042673587051, 3.388894605896315 ], [ -76.513978400198653, 3.386128702309832 ], [ -76.514214289953699, 3.38142898005579 ], [ -76.514252139776005, 3.362871778642405 ], [ -76.514412595794951, 3.363121485533993 ], [ -76.51471969684053, 3.363121509173978 ], [ -76.515435456543344, 3.362654791861628 ], [ -76.515667127553641, 3.362962619610826 ], [ -76.515455719743002, 3.363200636724221 ], [ -76.515707648036695, 3.363308673860426 ], [ -76.516379929867639, 3.364270632807714 ], [ -76.516893689787864, 3.364175730726834 ], [ -76.516702966137018, 3.363579865203903 ], [ -76.517348100210171, 3.363449723344119 ], [ -76.517365142714311, 3.363964198951727 ], [ -76.517915694758372, 3.364401856775829 ], [ -76.518374622596681, 3.363405508463798 ], [ -76.519309515848818, 3.362958917878254 ], [ -76.519448971438294, 3.362956172918973 ], [ -76.519662133894045, 3.363344074190259 ], [ -76.520236192681821, 3.363380283914995 ], [ -76.520668025683932, 3.363810726435132 ], [ -76.521242006575491, 3.363946396894585 ], [ -76.522057188621332, 3.363581173006429 ], [ -76.523030650002653, 3.363418484769305 ], [ -76.524050890437991, 3.362147619687058 ], [ -76.524292431677338, 3.362112035117305 ], [ -76.524629810529319, 3.363871075393793 ], [ -76.525180859149785, 3.364764260144977 ], [ -76.525965275039908, 3.365447895407685 ], [ -76.537503493018278, 3.371206650973764 ], [ -76.541192365949456, 3.373237632868217 ], [ -76.541812956707062, 3.373886318719425 ], [ -76.542185293778303, 3.374659733470267 ], [ -76.544345789285643, 3.383950468024445 ], [ -76.54638760202279, 3.397133737193848 ], [ -76.546413382725675, 3.400356803912429 ], [ -76.541757634004455, 3.400958591645068 ], [ -76.538714954688672, 3.410286805802208 ], [ -76.524991045451316, 3.405794733224334 ], [ -76.522557599978455, 3.405517571626549 ] ] ] } },
{ "type": "Feature", "properties": { "comuna": 18, "nombre": "Comuna 18" }, "geometry": { "type": "Polygon", "coordinates": [ [ [ -76.548943980245042, 3.370830791120843 ], [ -76.549119572918926, 3.370014307692708 ], [ -76.548989293974913, 3.369659570063714 ], [ -76.549665799281968, 3.367957636694053 ], [ -76.550531434053227, 3.367305138838132 ], [ -76.550882290917244, 3.366443613440169 ], [ -76.551058780617097, 3.366340140865941 ], [ -76.553403637811584, 3.367271258634914 ], [ -76.554017161848932, 3.367336695439866 ], [ -76.554931167102282, 3.368088377160463 ], [ -76.555727463945431, 3.367497111806683 ], [ -76.556471258846273, 3.367623777829022 ], [ -76.558171044344391, 3.367461121666547 ], [ -76.559274152422603, 3.368221237774919 ], [ -76.559120808107437, 3.369137659127288 ], [ -76.559270013401601, 3.369830243076504 ], [ -76.559801602388248, 3.370041376785132 ], [ -76.560368879219453, 3.369505017828165 ], [ -76.560915199556334, 3.370288382144337 ], [ -76.561746912779483, 3.370891899565295 ], [ -76.56166694329572, 3.371951457483391 ], [ -76.561933137154369, 3.372939972318648 ], [ -76.561324994509832, 3.373796009954985 ], [ -76.561442358842143, 3.375839047588912 ], [ -76.560582387370019, 3.375583896254308 ], [ -76.560110365263682, 3.377401523246359 ], [ -76.560574151365344, 3.377937916923814 ], [ -76.561292338115223, 3.378331014582118 ], [ -76.56139032310594, 3.379648050351905 ], [ -76.561149363648752, 3.379985101717645 ], [ -76.560580895695907, 3.380111736517659 ], [ -76.560099531754446, 3.379738598519574 ], [ -76.559557304357014, 3.379638682183709 ], [ -76.560035084038148, 3.381115233893991 ], [ -76.561584754189198, 3.382403054262025 ], [ -76.56111545601776, 3.382963406170855 ], [ -76.561509162738261, 3.383376899809013 ], [ -76.561350767829524, 3.38430821833584 ], [ -76.561710654438244, 3.384577650820875 ], [ -76.561557696702707, 3.384654503078562 ], [ -76.561203189636188, 3.385551485121019 ], [ -76.561885128130911, 3.386724205289629 ], [ -76.562416889928514, 3.386624758633734 ], [ -76.562730865018452, 3.387308354307818 ], [ -76.561755570160841, 3.387072317481275 ], [ -76.561605282836268, 3.387158212475212 ], [ -76.561625099143185, 3.387384261933642 ], [ -76.561902180240793, 3.387728783099466 ], [ -76.562310723054495, 3.387529871474375 ], [ -76.562912623635853, 3.38791508934549 ], [ -76.563529342906037, 3.388779603143012 ], [ -76.563221175139262, 3.389054174648916 ], [ -76.562824025897996, 3.388998357521567 ], [ -76.562142244625278, 3.389613193443675 ], [ -76.562709200451707, 3.390369131620192 ], [ -76.562435552677471, 3.390381910041692 ], [ -76.561986443926216, 3.390791187847988 ], [ -76.561487860051813, 3.390818229496631 ], [ -76.561287496122134, 3.391868858222476 ], [ -76.561382303941258, 3.392457719553765 ], [ -76.561558238224649, 3.392647604474927 ], [ -76.561558173158232, 3.394924982602088 ], [ -76.560771505226668, 3.395398282241509 ], [ -76.56021597335311, 3.395183925718875 ], [ -76.559804183497107, 3.395564987367523 ], [ -76.558914518783268, 3.395447197287387 ], [ -76.557899134886156, 3.394694934759806 ], [ -76.549647629639338, 3.395832712084711 ], [ -76.549571621425045, 3.395210819704652 ], [ -76.548628825891925, 3.395347331604814 ], [ -76.548700844612199, 3.395957556458812 ], [ -76.546252678095414, 3.39628378671466 ], [ -76.544345789285643, 3.383950468024445 ], [ -76.5423834926724, 3.375486393749585 ], [ -76.542924650478824, 3.374709518449198 ], [ -76.543914339523411, 3.374917530683801 ], [ -76.544463200038706, 3.374320787850898 ], [ -76.544346258932265, 3.373823474126759 ], [ -76.545120029825299, 3.373669797506578 ], [ -76.545201048942218, 3.372702311416905 ], [ -76.544994139058275, 3.372132658251288 ], [ -76.544121431766825, 3.371590100595284 ], [ -76.544148431648082, 3.371409262024055 ], [ -76.546514742262488, 3.370550385059254 ], [ -76.54722550973014, 3.370848800935092 ], [ -76.547477415624201, 3.371219532367092 ], [ -76.548044244148798, 3.371147221298098 ], [ -76.547999268354474, 3.370903086594893 ], [ -76.547486449345925, 3.37038767270288 ], [ -76.547612419887258, 3.370152586813734 ], [ -76.548197228875864, 3.37040578679877 ], [ -76.548728045621658, 3.370866949940098 ], [ -76.548943980245042, 3.370830791120843 ] ] ] } },
{ "type": "Feature", "properties": { "comuna": 2, "nombre": "Comuna 2" }, "geometry": { "type": "Polygon", "coordinates": [ [ [ -76.498550438834798, 3.495674077233414 ], [ -76.501568902029248, 3.490992413798175 ], [ -76.502238589665083, 3.490415713016506 ], [ -76.503048748709872, 3.488555891609626 ], [ -76.503751873500462, 3.487911653412687 ], [ -76.503926711289537, 3.487098534696158 ], [ -76.50393003530418, 3.484380789729773 ], [ -76.504127834775687, 3.483680533780539 ], [ -76.506655929063413, 3.482362959117956 ], [ -76.507952187467808, 3.481926529086262 ], [ -76.509052766014548, 3.48099018052477 ], [ -76.511092993236488, 3.477686311543983 ], [ -76.513882727431479, 3.474069752657469 ], [ -76.514755664990133, 3.472614065691763 ], [ -76.516231513668828, 3.470661116647647 ], [ -76.516888462029101, 3.469567089855262 ], [ -76.519012361405288, 3.464964891874646 ], [ -76.519597287940243, 3.464277745878725 ], [ -76.520002283967884, 3.463147529893974 ], [ -76.520533212210552, 3.462568882954514 ], [ -76.521064114799643, 3.462342872292325 ], [ -76.522089905915095, 3.462207315332504 ], [ -76.524132458447838, 3.462370212159397 ], [ -76.525005363678829, 3.460995894139645 ], [ -76.526913038860627, 3.459684936687863 ], [ -76.527821939347049, 3.458156903757841 ], [ -76.529072692756557, 3.457741053637477 ], [ -76.53006247016269, 3.457849618967096 ], [ -76.531520212829548, 3.456837009036557 ], [ -76.531871163733328, 3.456366848442574 ], [ -76.532087201139447, 3.454938231944143 ], [ -76.532447173687302, 3.454061182812128 ], [ -76.535686530383813, 3.45268699240178 ], [ -76.537207257790911, 3.451430243966563 ], [ -76.538143075192963, 3.450905861479946 ], [ -76.538970899082869, 3.450706981882031 ], [ -76.539915684858215, 3.450716072854151 ], [ -76.541508283852963, 3.451566098090429 ], [ -76.54324491723979, 3.451059833421952 ], [ -76.544477634310141, 3.451177437015034 ], [ -76.544464696822388, 3.449547629417499 ], [ -76.544061695259742, 3.449104187460766 ], [ -76.543894036015644, 3.44863119504079 ], [ -76.542561397302052, 3.449009518115882 ], [ -76.542526101365453, 3.448903095295975 ], [ -76.544235304272178, 3.44812866449023 ], [ -76.544811934576344, 3.448308920913297 ], [ -76.54650231505164, 3.448085179550035 ], [ -76.546574316433762, 3.44768733673026 ], [ -76.546070442546409, 3.447443181842476 ], [ -76.545881498635893, 3.447162872283297 ], [ -76.546106366809298, 3.446602596900706 ], [ -76.546701448314508, 3.446971509050987 ], [ -76.548701634069118, 3.44708678817098 ], [ -76.549515167422612, 3.447603535017464 ], [ -76.550218012580785, 3.447329496426868 ], [ -76.550509918964735, 3.447602387491222 ], [ -76.551453586916296, 3.446913403914758 ], [ -76.551915225113078, 3.446892955810359 ], [ -76.552370062519913, 3.447193141240445 ], [ -76.552886020160571, 3.446927103608064 ], [ -76.553015020435524, 3.44655189847238 ], [ -76.553300154820022, 3.446408647172816 ], [ -76.55385682232135, 3.446749767568152 ], [ -76.554413504544897, 3.446681568042878 ], [ -76.554589999973672, 3.447049962028741 ], [ -76.554352370266585, 3.447657111484418 ], [ -76.554440618252315, 3.447834486795291 ], [ -76.555275635869407, 3.447923202381058 ], [ -76.555475551540724, 3.448090758481481 ], [ -76.556247103962988, 3.447660592951619 ], [ -76.556653041001709, 3.447860586235048 ], [ -76.556274654326828, 3.448205460140641 ], [ -76.557299739541733, 3.448888022429282 ], [ -76.557299697952388, 3.450101583731159 ], [ -76.556453952451307, 3.450725824607707 ], [ -76.554888291748867, 3.451141699618101 ], [ -76.554528347367167, 3.451846959486752 ], [ -76.553205592778042, 3.453230330505074 ], [ -76.551342982902838, 3.453881279480874 ], [ -76.550686127052927, 3.453917421285269 ], [ -76.549885314668657, 3.453673256092495 ], [ -76.548180678821197, 3.454713463066711 ], [ -76.547964343896339, 3.455061393248195 ], [ -76.548543863175993, 3.455894427486846 ], [ -76.547677205166778, 3.45625684454895 ], [ -76.546965219373959, 3.456907252276257 ], [ -76.54667875591548, 3.456768997175689 ], [ -76.546706859504724, 3.457167562416533 ], [ -76.546281189951557, 3.457342693816994 ], [ -76.545240619619776, 3.456900105791088 ], [ -76.544902967337038, 3.456502297163342 ], [ -76.544200016602645, 3.456333959416512 ], [ -76.543775605046605, 3.455183034872134 ], [ -76.542921707638499, 3.455195639027321 ], [ -76.542546431288713, 3.45582947694994 ], [ -76.541418092206641, 3.455867354672449 ], [ -76.541374749309156, 3.455145038417408 ], [ -76.5410283350745, 3.454530306128085 ], [ -76.540959333556387, 3.453918252347142 ], [ -76.540976274914627, 3.453747977781005 ], [ -76.541279850728756, 3.453841636666439 ], [ -76.541483403132091, 3.45347732881459 ], [ -76.541446108677405, 3.452546227699652 ], [ -76.541255397023392, 3.452183661824296 ], [ -76.54069303978531, 3.451849999189331 ], [ -76.540357962684283, 3.451837360174948 ], [ -76.54004425938092, 3.452091414440403 ], [ -76.539821991668276, 3.453250541463049 ], [ -76.539972311124217, 3.454058525279967 ], [ -76.539662622479838, 3.454206889906002 ], [ -76.539761407628234, 3.454604917741051 ], [ -76.539515638837557, 3.454761311171989 ], [ -76.539523561929499, 3.455051679362267 ], [ -76.539155261331757, 3.45577820925605 ], [ -76.53907859433366, 3.456682547642148 ], [ -76.538277670521822, 3.458011975886141 ], [ -76.538238844471181, 3.458616504459588 ], [ -76.538129664421803, 3.458772573086755 ], [ -76.537828921610938, 3.458622913694245 ], [ -76.537660174729069, 3.458888572568604 ], [ -76.537438701331709, 3.458861870255124 ], [ -76.53708097907969, 3.460090782015692 ], [ -76.537255342016223, 3.460545508992841 ], [ -76.536365377127396, 3.461846585276931 ], [ -76.536296049604815, 3.462651544254992 ], [ -76.535594115859297, 3.463600684475711 ], [ -76.53570841178508, 3.463753486025023 ], [ -76.53482913621977, 3.464345989050796 ], [ -76.535118738161714, 3.464915386376844 ], [ -76.534677981655648, 3.465233245259761 ], [ -76.534408079813403, 3.46500333800953 ], [ -76.53447855799125, 3.466343370609126 ], [ -76.533171582090844, 3.468341280607407 ], [ -76.532866673941854, 3.470444180405964 ], [ -76.532199334504853, 3.470451853669675 ], [ -76.531791813864643, 3.471402447700409 ], [ -76.531306480062781, 3.471723517241774 ], [ -76.531505057840704, 3.471910710263729 ], [ -76.531094175947032, 3.472534094299898 ], [ -76.531375794943742, 3.473019858525173 ], [ -76.532165716395866, 3.473165557357859 ], [ -76.532246595610317, 3.474713642328557 ], [ -76.531233737498894, 3.475512799916446 ], [ -76.530465184241322, 3.475733515672889 ], [ -76.529260137316001, 3.478581932150155 ], [ -76.5292764932437, 3.479646136721302 ], [ -76.529128077079193, 3.480202208355051 ], [ -76.529335288342395, 3.480209445441081 ], [ -76.529235291212203, 3.480425846211354 ], [ -76.530106860406832, 3.480665978223065 ], [ -76.53050702182361, 3.481020656882713 ], [ -76.531014642513455, 3.481148688922878 ], [ -76.531244112996305, 3.481560536802322 ], [ -76.530947147857844, 3.481990344204685 ], [ -76.530335361716595, 3.481994288461721 ], [ -76.530396307878291, 3.483309411820959 ], [ -76.530696748696684, 3.48354273231424 ], [ -76.531086785813883, 3.483574062012201 ], [ -76.531861911735376, 3.484144177278409 ], [ -76.532738069790895, 3.485166473533427 ], [ -76.532750090703132, 3.485595041455043 ], [ -76.533349518742213, 3.485829450396172 ], [ -76.533305066198281, 3.486220714736485 ], [ -76.533902719717474, 3.486476993093194 ], [ -76.534441985531217, 3.487168013841483 ], [ -76.534386200304183, 3.487701823681869 ], [ -76.535060130457495, 3.487808006701442 ], [ -76.535467022197821, 3.488283954575627 ], [ -76.535295784874592, 3.488484169313599 ], [ -76.534032654805841, 3.488171114502878 ], [ -76.534984455416662, 3.489091388302342 ], [ -76.535013030321394, 3.48943588579174 ], [ -76.535327297441739, 3.489496168999233 ], [ -76.535353966913291, 3.489743058762942 ], [ -76.53577177678919, 3.489851299560534 ], [ -76.535509905032598, 3.489967982723268 ], [ -76.535221928186871, 3.490491482097222 ], [ -76.534900654135058, 3.490575526411008 ], [ -76.534869104759707, 3.491563854357937 ], [ -76.535500795079898, 3.491958063281893 ], [ -76.534889805619585, 3.492229287501221 ], [ -76.534667180606775, 3.492609599361408 ], [ -76.534238106335621, 3.492869404993044 ], [ -76.533626254195624, 3.491991510829835 ], [ -76.533309754028835, 3.490875551630529 ], [ -76.533054225858621, 3.490746297777073 ], [ -76.532869746081047, 3.49098052983933 ], [ -76.532743035933876, 3.490828699211999 ], [ -76.532523995890656, 3.490400471184361 ], [ -76.532637216252013, 3.489894367942472 ], [ -76.532459733500147, 3.489617363108969 ], [ -76.532126241936751, 3.4897303516964 ], [ -76.531670365801858, 3.490214021371786 ], [ -76.531219233508111, 3.490332904545917 ], [ -76.531287905769162, 3.489120473621039 ], [ -76.531581442420958, 3.489042394915266 ], [ -76.531316783531324, 3.488203633211454 ], [ -76.53089836231176, 3.488196331969236 ], [ -76.530833535846156, 3.488363604950402 ], [ -76.530186557924523, 3.488565242473122 ], [ -76.529837463052118, 3.488368063834179 ], [ -76.529446002232319, 3.488907873217744 ], [ -76.529346060463666, 3.489658349763141 ], [ -76.529139085649732, 3.489856342116195 ], [ -76.528375139357522, 3.489887940342374 ], [ -76.52815016610046, 3.4901175776103 ], [ -76.527991745135822, 3.490677321982447 ], [ -76.528226586979883, 3.491107889173631 ], [ -76.528113106656591, 3.492501971005663 ], [ -76.528330108080965, 3.492725351293948 ], [ -76.528364576928666, 3.497491087365064 ], [ -76.52791122507324, 3.497691040830836 ], [ -76.527334419954769, 3.497574376963353 ], [ -76.527044635604, 3.497691903412063 ], [ -76.526319386711208, 3.497118610192332 ], [ -76.525056928690717, 3.497255992107632 ], [ -76.524427081068666, 3.496622147633885 ], [ -76.524167031026451, 3.496769485264408 ], [ -76.524223735526405, 3.496143827087517 ], [ -76.52353271707716, 3.495705243858484 ], [ -76.522850591993617, 3.494743851503131 ], [ -76.522359778269504, 3.494464292945753 ], [ -76.512733226093061, 3.491440227957144 ], [ -76.510902764913283, 3.490569577144767 ], [ -76.509420636048333, 3.490119413344304 ], [ -76.509009928635791, 3.491566780748308 ], [ -76.507810844239827, 3.491190505859554 ], [ -76.507479897655045, 3.49213787245731 ], [ -76.507001356077623, 3.492003894029146 ], [ -76.506649218816605, 3.492969202860942 ], [ -76.508522677443523, 3.493567435990437 ], [ -76.497251969675858, 3.498516749084949 ], [ -76.49741375640896, 3.497821534530793 ], [ -76.498550438834798, 3.495674077233414 ] ] ] } },
{ "type": "Feature", "properties": { "comuna": 1, "nombre": "Comuna 1" }, "geometry": { "type": "Polygon", "coordinates": [ [ [ -76.558936678564223, 3.462976948980638 ], [ -76.558256741302614, 3.463015516576118 ], [ -76.557636542949666, 3.463421760101164 ], [ -76.555889217959333, 3.461314104312203 ], [ -76.554468672154229, 3.46153186611795 ], [ -76.554376880435939, 3.461052638418759 ], [ -76.554647941422587, 3.459724255584361 ], [ -76.552653860099099, 3.460395010071963 ], [ -76.552590764461826, 3.461050734613925 ], [ -76.55218044098838, 3.460971178384181 ], [ -76.551629749053063, 3.460507260932165 ], [ -76.551367890225634, 3.460547021447983 ], [ -76.551062544488047, 3.460325737048606 ], [ -76.550999038958025, 3.460492969771055 ], [ -76.550347671319585, 3.460540837657503 ], [ -76.550253979299171, 3.460023460769418 ], [ -76.54995438756994, 3.459634643147943 ], [ -76.549045671838812, 3.458796437763661 ], [ -76.548794839132512, 3.458882792165876 ], [ -76.548557477027146, 3.458284053662612 ], [ -76.548234818522175, 3.458243468423686 ], [ -76.548060653519329, 3.457798560290852 ], [ -76.547801211806387, 3.457794646277675 ], [ -76.54776260310561, 3.457573130698151 ], [ -76.546965219373959, 3.456907252276257 ], [ -76.547677205166778, 3.45625684454895 ], [ -76.548543863175993, 3.455894427486846 ], [ -76.547964343896339, 3.455061393248195 ], [ -76.548180678821197, 3.454713463066711 ], [ -76.549885314668657, 3.453673256092495 ], [ -76.550686127052927, 3.453917421285269 ], [ -76.551342982902838, 3.453881279480874 ], [ -76.553205592778042, 3.453230330505074 ], [ -76.554528347367167, 3.451846959486752 ], [ -76.554888291748867, 3.451141699618101 ], [ -76.556453952451307, 3.450725824607707 ], [ -76.557299697952388, 3.450101583731159 ], [ -76.557299739980365, 3.448899449633374 ], [ -76.557639761873531, 3.448990385680041 ], [ -76.557952498442518, 3.44790518054485 ], [ -76.558363439229595, 3.447523845763991 ], [ -76.559337380663507, 3.447398607273436 ], [ -76.559678325346582, 3.448082805954192 ], [ -76.560026091879763, 3.448396618325738 ], [ -76.561821944418909, 3.448819559234058 ], [ -76.563037055042045, 3.448764002621366 ], [ -76.563490421009789, 3.448619261462076 ], [ -76.563652389852521, 3.448375133494339 ], [ -76.564138280868065, 3.448320894042257 ], [ -76.564597165419542, 3.448754920368847 ], [ -76.564777103088119, 3.449586784980955 ], [ -76.565298977223677, 3.449894224486887 ], [ -76.565667894732059, 3.449858065497921 ], [ -76.567017604318622, 3.449179950760501 ], [ -76.568043371621229, 3.449161890294852 ], [ -76.568898185925462, 3.448745978502235 ], [ -76.570749076428157, 3.44958479823781 ], [ -76.571992694399597, 3.449505563189765 ], [ -76.572515917824745, 3.449100801189043 ], [ -76.573001949038925, 3.449078771819305 ], [ -76.573960925480833, 3.449611202768575 ], [ -76.575355607596919, 3.449716830843218 ], [ -76.575994879572519, 3.45008650331277 ], [ -76.577332552869024, 3.449576081813595 ], [ -76.577818658456309, 3.449787294057626 ], [ -76.579005335988242, 3.449659727703806 ], [ -76.579583303718522, 3.450759744363054 ], [ -76.580196353266729, 3.451529799983569 ], [ -76.58041089325782, 3.45224701308415 ], [ -76.5814815077986, 3.452810307624897 ], [ -76.582674717223767, 3.454187590007055 ], [ -76.582998786137622, 3.454191972182565 ], [ -76.583673077892456, 3.453457104498119 ], [ -76.583918343954224, 3.453377921459952 ], [ -76.584675861343555, 3.453558337806284 ], [ -76.584864115518272, 3.453883990451075 ], [ -76.584432837943908, 3.455190834003909 ], [ -76.584647380539707, 3.456141300177398 ], [ -76.58302977712097, 3.457262202563689 ], [ -76.579699697166831, 3.460011508293483 ], [ -76.578963330264358, 3.460232953904891 ], [ -76.578612689999531, 3.460082206472419 ], [ -76.578098682358984, 3.459468265591971 ], [ -76.577764781188506, 3.458515889149161 ], [ -76.576733519407227, 3.458620071356777 ], [ -76.576856464980082, 3.458973839937117 ], [ -76.577404218321576, 3.459204274615403 ], [ -76.577431000387961, 3.45936081431589 ], [ -76.576449645226901, 3.459725871286603 ], [ -76.575910037700979, 3.460146315133427 ], [ -76.575518415005604, 3.459909028535603 ], [ -76.575651846999165, 3.459287678561295 ], [ -76.574974199136022, 3.458058315748766 ], [ -76.574666298382866, 3.458006249050328 ], [ -76.573797560786872, 3.45836770178306 ], [ -76.572873925770764, 3.458354972323399 ], [ -76.573048489473578, 3.457361913517214 ], [ -76.572675991196732, 3.457008917693265 ], [ -76.572723242677014, 3.456304916862666 ], [ -76.57250040374457, 3.456126405006301 ], [ -76.571504479166705, 3.456686946221226 ], [ -76.571459681723624, 3.455944601709362 ], [ -76.571170995946133, 3.455820363697381 ], [ -76.570815036124344, 3.456385892669593 ], [ -76.570388199764224, 3.456681063077328 ], [ -76.569607832343578, 3.45643421351779 ], [ -76.569075708548269, 3.455816726962239 ], [ -76.568205508988996, 3.45638356775301 ], [ -76.568037230727285, 3.457083150194645 ], [ -76.567482923858321, 3.456226690799057 ], [ -76.566692238294507, 3.456400822146703 ], [ -76.566638412109384, 3.45581991897732 ], [ -76.56542684098298, 3.455882689168698 ], [ -76.564602969912542, 3.455512725204906 ], [ -76.563572418819362, 3.455393598757079 ], [ -76.563145994674031, 3.455489305209708 ], [ -76.56303561908544, 3.455835792782468 ], [ -76.563510881505422, 3.456433351433379 ], [ -76.563536813627962, 3.456730536232202 ], [ -76.563121893423556, 3.457707409975351 ], [ -76.562029238560967, 3.458665615541473 ], [ -76.56191984692515, 3.458978125138386 ], [ -76.560645246437787, 3.460386443899994 ], [ -76.560537457908339, 3.46115691488587 ], [ -76.560820614059864, 3.463547735699519 ], [ -76.559363213107559, 3.463533566152461 ], [ -76.559229515708566, 3.463144920982367 ], [ -76.558936678564223, 3.462976948980638 ] ] ] } },
{ "type": "Feature", "properties": { "comuna": 3, "nombre": "Comuna 3" }, "geometry": { "type": "Polygon", "coordinates": [ [ [ -76.522692775808181, 3.462216399513174 ], [ -76.521315010344168, 3.462296911040174 ], [ -76.518556741611789, 3.452986988463095 ], [ -76.522079225450057, 3.452156196911479 ], [ -76.5282524847714, 3.450116618119331 ], [ -76.527222139010547, 3.447112910530763 ], [ -76.526003778249546, 3.442554513629271 ], [ -76.528815435699016, 3.442698769269263 ], [ -76.530798740878964, 3.442618851762569 ], [ -76.532973233924736, 3.442090714135471 ], [ -76.536047830271301, 3.440554108778555 ], [ -76.537775343602405, 3.438749804166869 ], [ -76.53966428087017, 3.440227387461781 ], [ -76.540833973105109, 3.44084230105077 ], [ -76.540851921934433, 3.441773623226535 ], [ -76.543326359020128, 3.441384940930111 ], [ -76.543767280719308, 3.440842444586196 ], [ -76.545440855348048, 3.441511627865216 ], [ -76.545701778988956, 3.441855233712153 ], [ -76.546817486031131, 3.442560557145188 ], [ -76.548372772737437, 3.443052596060551 ], [ -76.548931915247664, 3.444359997970388 ], [ -76.548922897348675, 3.444839221977748 ], [ -76.548365004053309, 3.445381715104906 ], [ -76.546565410267618, 3.445598644253198 ], [ -76.546250475069598, 3.445779469024192 ], [ -76.546178462707545, 3.446439528991432 ], [ -76.545881498635893, 3.447162872283297 ], [ -76.546070442546409, 3.447443181842476 ], [ -76.546574316433762, 3.44768733673026 ], [ -76.546565303550608, 3.448030930706939 ], [ -76.544811934576344, 3.448308920913297 ], [ -76.544235304272178, 3.44812866449023 ], [ -76.542526101365453, 3.448903095295975 ], [ -76.542561397302052, 3.449009518115882 ], [ -76.543894036015644, 3.44863119504079 ], [ -76.544061695259742, 3.449104187460766 ], [ -76.544464696822388, 3.449547629417499 ], [ -76.544477634310141, 3.451177437015034 ], [ -76.54324491723979, 3.451059833421952 ], [ -76.541508283852963, 3.451566098090429 ], [ -76.540518537796643, 3.450942153189948 ], [ -76.53968173942765, 3.450688935496361 ], [ -76.538538993299824, 3.450770252994632 ], [ -76.537702163270424, 3.451122844458804 ], [ -76.535686530383813, 3.45268699240178 ], [ -76.532447173687302, 3.454061182812128 ], [ -76.532087201139447, 3.454938231944143 ], [ -76.531871163733328, 3.456366848442574 ], [ -76.531520212829548, 3.456837009036557 ], [ -76.53006247016269, 3.457849618967096 ], [ -76.529072692756557, 3.457741053637477 ], [ -76.527821939347049, 3.458156903757841 ], [ -76.526913038860627, 3.459684936687863 ], [ -76.525005363678829, 3.460995894139645 ], [ -76.524132458447838, 3.462370212159397 ], [ -76.522692775808181, 3.462216399513174 ] ] ] } },
{ "type": "Feature", "properties": { "comuna": 19, "nombre": "Comuna 19" }, "geometry": { "type": "Polygon", "coordinates": [ [ [ -76.555475551540724, 3.448090758481481 ], [ -76.555275635869407, 3.447923202381058 ], [ -76.554372733234715, 3.447752619870523 ], [ -76.554589999973672, 3.447049962028741 ], [ -76.554413504544897, 3.446681568042878 ], [ -76.55385682232135, 3.446749767568152 ], [ -76.553300154820022, 3.446408647172816 ], [ -76.553015020435524, 3.44655189847238 ], [ -76.552886020160571, 3.446927103608064 ], [ -76.552370062519913, 3.447193141240445 ], [ -76.551915225113078, 3.446892955810359 ], [ -76.551453586916296, 3.446913403914758 ], [ -76.550509918964735, 3.447602387491222 ], [ -76.550218012580785, 3.447329496426868 ], [ -76.549515167422612, 3.447603535017464 ], [ -76.548701634069118, 3.44708678817098 ], [ -76.548353174831618, 3.447160275046527 ], [ -76.546492683774161, 3.446892828192953 ], [ -76.546106366809298, 3.446602596900706 ], [ -76.546277470507505, 3.445743302340981 ], [ -76.548365004053309, 3.445381715104906 ], [ -76.548895901305727, 3.444911556497225 ], [ -76.548931915247664, 3.444359997970388 ], [ -76.548248134496646, 3.442940381989976 ], [ -76.546817486031131, 3.442560557145188 ], [ -76.545701778988956, 3.441855233712153 ], [ -76.545440855348048, 3.441511627865216 ], [ -76.543767280719308, 3.440842444586196 ], [ -76.543326359020128, 3.441384940930111 ], [ -76.540851921934433, 3.441773623226535 ], [ -76.540833973105109, 3.44084230105077 ], [ -76.53966428087017, 3.440227387461781 ], [ -76.537775343602405, 3.438749804166869 ], [ -76.538600826592656, 3.437782124921345 ], [ -76.534274925433607, 3.433744007943963 ], [ -76.529857086834838, 3.432342239728787 ], [ -76.529794118773026, 3.432080018650446 ], [ -76.527437171727655, 3.431988253901419 ], [ -76.529452295637213, 3.430579032703763 ], [ -76.528948465123335, 3.429855644089945 ], [ -76.53028919032721, 3.428924406398751 ], [ -76.529767335693933, 3.428662156452554 ], [ -76.529812334541091, 3.42849940470754 ], [ -76.530199310319801, 3.427333015884245 ], [ -76.530667187847158, 3.427423463878926 ], [ -76.531567128212615, 3.424656679836052 ], [ -76.533042726602005, 3.425135991119017 ], [ -76.533276709040678, 3.424430732046722 ], [ -76.534032504101361, 3.424665867229809 ], [ -76.541757634004455, 3.400958591645068 ], [ -76.546413382725675, 3.400356803912429 ], [ -76.546405579370784, 3.397522541944324 ], [ -76.546252678095414, 3.39628378671466 ], [ -76.548700844612199, 3.395957556458812 ], [ -76.548628825891925, 3.395347331604814 ], [ -76.549571621425045, 3.395210819704652 ], [ -76.549647629639338, 3.395832712084711 ], [ -76.557899134886156, 3.394694934759806 ], [ -76.558025532569857, 3.394765814072429 ], [ -76.556492846603604, 3.406353225542525 ], [ -76.558155175868379, 3.406968986042545 ], [ -76.557889306788098, 3.409214143753532 ], [ -76.558729025366461, 3.410594997302021 ], [ -76.559049637399809, 3.411446336385986 ], [ -76.559457629884278, 3.41155368557035 ], [ -76.55977897001749, 3.410676569789278 ], [ -76.559911629677075, 3.410706376482947 ], [ -76.560267721815919, 3.410301759247457 ], [ -76.56080621609884, 3.41039839763397 ], [ -76.561342366550107, 3.409873987435812 ], [ -76.561512998494834, 3.410284534816226 ], [ -76.561817881380819, 3.409993138765547 ], [ -76.562526769426682, 3.409852374425278 ], [ -76.562583141011899, 3.409459104495029 ], [ -76.562722898811316, 3.40951054874912 ], [ -76.563396662565594, 3.408250558580147 ], [ -76.563355726640054, 3.407807943886541 ], [ -76.563632327788881, 3.407207890141568 ], [ -76.564413587536194, 3.407514912349138 ], [ -76.56460856918163, 3.407344087510849 ], [ -76.565032038950079, 3.407351796825556 ], [ -76.565564534947725, 3.40821765777945 ], [ -76.565759480287468, 3.408214957639811 ], [ -76.565818399611175, 3.408479237185049 ], [ -76.565099288647431, 3.409705077079323 ], [ -76.565467037164481, 3.409879584579781 ], [ -76.565635072865433, 3.410822628384817 ], [ -76.564859287621076, 3.410708913663408 ], [ -76.56266629977172, 3.41170611519667 ], [ -76.561918291525345, 3.412308490480071 ], [ -76.561373233640452, 3.41313869980604 ], [ -76.560952863267104, 3.413205828867342 ], [ -76.560344949395471, 3.413662253697164 ], [ -76.55982192919268, 3.413542939935743 ], [ -76.558974300863539, 3.413853548067822 ], [ -76.558630206519368, 3.413834518693177 ], [ -76.55809000082327, 3.413153871972944 ], [ -76.557523390733749, 3.413181516418155 ], [ -76.557235503728933, 3.41304319131837 ], [ -76.556652873561731, 3.411964306722028 ], [ -76.556253712952056, 3.41231238858582 ], [ -76.555636486055135, 3.411882228616113 ], [ -76.555589582926032, 3.413135345615043 ], [ -76.554450601035867, 3.417464865055431 ], [ -76.553327781956114, 3.420030851584474 ], [ -76.552810679273634, 3.423965140463735 ], [ -76.552027905309728, 3.42594165258182 ], [ -76.550921141134779, 3.426999518761412 ], [ -76.550273458016235, 3.427096083658276 ], [ -76.550432840641008, 3.427952460713007 ], [ -76.551197395557836, 3.428156197385544 ], [ -76.551136963822714, 3.42897070364122 ], [ -76.552261615317221, 3.429513327854426 ], [ -76.552615792134389, 3.429220789306611 ], [ -76.552530582946858, 3.428473716331618 ], [ -76.553682948590577, 3.42901602778976 ], [ -76.554123574500252, 3.428964036535286 ], [ -76.554357818752678, 3.428338710244512 ], [ -76.553836022862839, 3.427795732127008 ], [ -76.554150997308412, 3.427117684926766 ], [ -76.55496110109442, 3.427207693761891 ], [ -76.555118053542941, 3.429028497934354 ], [ -76.554763123458031, 3.429521169035791 ], [ -76.555357464862368, 3.43092508227727 ], [ -76.554175442866693, 3.433701182253345 ], [ -76.554171773305328, 3.434594323541852 ], [ -76.553802099482283, 3.434771159832184 ], [ -76.554102632496352, 3.435369785388111 ], [ -76.555160815868533, 3.435521258698842 ], [ -76.554330285694235, 3.436129852765561 ], [ -76.554153912389211, 3.436078913112189 ], [ -76.554147540776313, 3.436354511676789 ], [ -76.553871210352042, 3.436292925903308 ], [ -76.553711651589893, 3.436538473511747 ], [ -76.553117894557232, 3.436508286737279 ], [ -76.552722549313884, 3.436693514407557 ], [ -76.552081029507562, 3.437662680910845 ], [ -76.551399488227332, 3.437187091802366 ], [ -76.55056430285174, 3.43732178378707 ], [ -76.550250286084633, 3.437790172490179 ], [ -76.550069541789355, 3.439005966452618 ], [ -76.550260445227721, 3.439787037661249 ], [ -76.550421328522077, 3.439757875071892 ], [ -76.55058440514135, 3.439085032030005 ], [ -76.550944963743817, 3.43987594801249 ], [ -76.551161301359173, 3.43989360268876 ], [ -76.551196152992404, 3.440437509535561 ], [ -76.551614376742918, 3.440407990293729 ], [ -76.5519067679937, 3.439986515960633 ], [ -76.552148294475813, 3.440148310766902 ], [ -76.552503585138993, 3.440951525180094 ], [ -76.55308235711307, 3.440767692838605 ], [ -76.553453356465781, 3.441468946727526 ], [ -76.554975749830234, 3.442446613154667 ], [ -76.555091931736285, 3.442684958099777 ], [ -76.55498228649833, 3.443065257949725 ], [ -76.556852535166229, 3.445684530821501 ], [ -76.557098521898709, 3.445361605673157 ], [ -76.557257390901128, 3.445369295143425 ], [ -76.557361643400014, 3.446216128492348 ], [ -76.558527363240188, 3.446250639095265 ], [ -76.558634718783424, 3.447058137931935 ], [ -76.558427645474964, 3.447222771912791 ], [ -76.55715965474846, 3.44753383271957 ], [ -76.556653041001709, 3.447860586235048 ], [ -76.556184117390529, 3.447678674675751 ], [ -76.555475551540724, 3.448090758481481 ] ] ] } },
{ "type": "Feature", "properties": { "comuna": 15, "nombre": "Comuna 15" }, "geometry": { "type": "Polygon", "coordinates": [ [ [ -76.488061379889771, 3.419431623250611 ], [ -76.486362467982488, 3.418200550438478 ], [ -76.486333427734692, 3.419073342568504 ], [ -76.485400082928535, 3.419055188420469 ], [ -76.484733519624498, 3.418693319523774 ], [ -76.483599784544623, 3.417604754860573 ], [ -76.483477794214537, 3.417168145551727 ], [ -76.483587936162095, 3.416178313274203 ], [ -76.482933286066569, 3.415598141301038 ], [ -76.48286485366198, 3.415346941731852 ], [ -76.482986801110656, 3.414466738997344 ], [ -76.483438848349053, 3.413948713275889 ], [ -76.48344056770236, 3.413622919576581 ], [ -76.486770267290453, 3.412154458289586 ], [ -76.490726241542646, 3.409590488250469 ], [ -76.491616936124487, 3.408853801129436 ], [ -76.493036992346049, 3.406876297777234 ], [ -76.493814793970316, 3.406115720126662 ], [ -76.495894196389898, 3.404818333040215 ], [ -76.498856654605433, 3.402355388081822 ], [ -76.499609106287394, 3.401233336364546 ], [ -76.503222576077647, 3.394245217298386 ], [ -76.504779114662725, 3.392042225432637 ], [ -76.508275797103849, 3.388803948708171 ], [ -76.510010904147165, 3.388327394219887 ], [ -76.510912379618986, 3.390559181616219 ], [ -76.514576482405843, 3.395393956224263 ], [ -76.516183858994538, 3.39709864108795 ], [ -76.500571184533882, 3.411380704397082 ], [ -76.495230821611614, 3.416513008298708 ], [ -76.494841163033982, 3.416683517063523 ], [ -76.49331618540117, 3.416738389855092 ], [ -76.491884325511677, 3.418048456119507 ], [ -76.490242637157209, 3.418646361292234 ], [ -76.488887935611189, 3.419447021573204 ], [ -76.488061379889771, 3.419431623250611 ] ] ] } },
{ "type": "Feature", "properties": { "comuna": 22, "nombre": "Comuna 22" }, "geometry": { "type": "Polygon", "coordinates": [ [ [ -76.5423834926724, 3.375486393749585 ], [ -76.541812956707062, 3.373886318719425 ], [ -76.540934195929836, 3.37306797185824 ], [ -76.537503493018278, 3.371206650973764 ], [ -76.526531257597156, 3.365772260774933 ], [ -76.525434052966943, 3.365043698234892 ], [ -76.524629810529319, 3.363871075393793 ], [ -76.524193033065373, 3.361340335740356 ], [ -76.523359858136232, 3.35302936593715 ], [ -76.523488451602347, 3.351084526482833 ], [ -76.524141873854674, 3.347050640726812 ], [ -76.524551840273745, 3.338517083738898 ], [ -76.524394345831183, 3.33714708215139 ], [ -76.52394214554991, 3.335318857801108 ], [ -76.525652459670681, 3.334715570110929 ], [ -76.526428368523696, 3.334749669120534 ], [ -76.527894766292064, 3.335163079946373 ], [ -76.528758051553723, 3.335096944657346 ], [ -76.532633995594509, 3.333239266504319 ], [ -76.546950678545386, 3.332271163434066 ], [ -76.550374883105491, 3.331819173045771 ], [ -76.55112631785893, 3.333154183496531 ], [ -76.551190642692248, 3.33364756845706 ], [ -76.550616254442772, 3.335058236187304 ], [ -76.549936219362536, 3.335859453848913 ], [ -76.550076631886583, 3.338328942625961 ], [ -76.550918445654176, 3.34049438573059 ], [ -76.551537381769137, 3.341169009317503 ], [ -76.551637187143584, 3.342216739980092 ], [ -76.548750700880746, 3.350309757204131 ], [ -76.546593804769259, 3.353430415704898 ], [ -76.546948137275805, 3.354973712318318 ], [ -76.54424645825749, 3.356692456565341 ], [ -76.544542295457418, 3.357274785356505 ], [ -76.544362403487028, 3.359215197495499 ], [ -76.542051724836682, 3.361387632998814 ], [ -76.549069153751688, 3.370269807313623 ], [ -76.549015963481821, 3.370713248264189 ], [ -76.548674062759147, 3.370848863138288 ], [ -76.547666403740493, 3.370143546950893 ], [ -76.547486449345925, 3.37038767270288 ], [ -76.547999268354474, 3.370903086594893 ], [ -76.548044244148798, 3.371147221298098 ], [ -76.547477415624201, 3.371219532367092 ], [ -76.54722550973014, 3.370848800935092 ], [ -76.546514742262488, 3.370550385059254 ], [ -76.544148431648082, 3.371409262024055 ], [ -76.544121431766825, 3.371590100595284 ], [ -76.544994139058275, 3.372132658251288 ], [ -76.545201048942218, 3.372702311416905 ], [ -76.545120029825299, 3.373669797506578 ], [ -76.544346258932265, 3.373823474126759 ], [ -76.544463200038706, 3.374320787850898 ], [ -76.543914339523411, 3.374917530683801 ], [ -76.542924650478824, 3.374709518449198 ], [ -76.5423834926724, 3.375486393749585 ] ] ] } },
{ "type": "Feature", "properties": { "comuna": 21, "nombre": "Comuna 21" }, "geometry": { "type": "Polygon", "coordinates": [ [ [ -76.475743200812445, 3.445693677820692 ], [ -76.475809424161156, 3.444120641935652 ], [ -76.475370755065143, 3.442546693332156 ], [ -76.474910738231586, 3.441632884709013 ], [ -76.473820945604871, 3.440416326340781 ], [ -76.472712775551074, 3.440053523880681 ], [ -76.469033429811688, 3.440557155518864 ], [ -76.468052108910967, 3.439925718448648 ], [ -76.465264210451608, 3.436938331900739 ], [ -76.463468608134121, 3.435651876727665 ], [ -76.462803209807618, 3.43443296033647 ], [ -76.461670701735983, 3.429501759239824 ], [ -76.461259579296296, 3.426607710570876 ], [ -76.462805807844205, 3.421600858559851 ], [ -76.463170319210363, 3.417572287565925 ], [ -76.463597231162197, 3.416915176697175 ], [ -76.465509061317746, 3.415501489863448 ], [ -76.46635336029577, 3.413862954399417 ], [ -76.467369096068197, 3.411167378870697 ], [ -76.467380188432017, 3.410722628150208 ], [ -76.466159088316772, 3.407079266473572 ], [ -76.466242123236654, 3.406385446981319 ], [ -76.466691459979984, 3.405660028667 ], [ -76.468223778308527, 3.404016776974335 ], [ -76.468353629313967, 3.402733540203172 ], [ -76.467365221262824, 3.400076984089729 ], [ -76.467427523169619, 3.399900179669171 ], [ -76.467857716460557, 3.400452359672072 ], [ -76.468404131689482, 3.400786204713581 ], [ -76.470532947707568, 3.400842913661895 ], [ -76.472649437216091, 3.401104260737727 ], [ -76.473408428555686, 3.400783434628223 ], [ -76.474193958804761, 3.399549018796629 ], [ -76.474469731435263, 3.399432778187673 ], [ -76.474831377985055, 3.399519567556491 ], [ -76.476518392346591, 3.402054485632358 ], [ -76.476968279110267, 3.403168749212423 ], [ -76.476947853064289, 3.403526893199312 ], [ -76.476153795720407, 3.404945964510227 ], [ -76.476134037980955, 3.405595570934602 ], [ -76.47693479313115, 3.406427031647946 ], [ -76.479070649733742, 3.40772953568081 ], [ -76.479495571465833, 3.408367466654378 ], [ -76.479452974011593, 3.409604586695758 ], [ -76.480027227001017, 3.411870017976686 ], [ -76.473916030998055, 3.411840347535837 ], [ -76.473318512652781, 3.411571346496225 ], [ -76.466783565619068, 3.423068946267078 ], [ -76.466412036966346, 3.424231583950329 ], [ -76.466768981762627, 3.425430201127521 ], [ -76.476372267046528, 3.437874039333622 ], [ -76.481490370186066, 3.441158143589245 ], [ -76.482264058952666, 3.441481199325049 ], [ -76.48336271304629, 3.440489864771652 ], [ -76.484039663997237, 3.440178801283328 ], [ -76.484086914502413, 3.444481489039803 ], [ -76.48149253594967, 3.444779731002 ], [ -76.480943514463789, 3.446099794464422 ], [ -76.48010592528469, 3.447211918710777 ], [ -76.47768655965713, 3.448366463818953 ], [ -76.477191009352254, 3.448729394746155 ], [ -76.476797338202715, 3.449299522559666 ], [ -76.475830639428764, 3.44862783315458 ], [ -76.475302159611061, 3.447845509389706 ], [ -76.475230758650184, 3.447422059262565 ], [ -76.475743200812445, 3.445693677820692 ] ] ] } },
{ "type": "Feature", "properties": { "comuna": 14, "nombre": "Comuna 14" }, "geometry": { "type": "Polygon", "coordinates": [ [ [ -76.466569249103429, 3.423528251109697 ], [ -76.473318512652781, 3.411571346496225 ], [ -76.473916030998055, 3.411840347535837 ], [ -76.480027227001017, 3.411870017976686 ], [ -76.480054893609008, 3.412129554489737 ], [ -76.479732866687726, 3.412845457116189 ], [ -76.479737161943419, 3.413404293515005 ], [ -76.480595196255692, 3.41441193490362 ], [ -76.48116438835163, 3.414838808796084 ], [ -76.482888915367113, 3.415155252648856 ], [ -76.482933286066569, 3.415598141301038 ], [ -76.483587936162095, 3.416178313274203 ], [ -76.483477794214537, 3.417168145551727 ], [ -76.483695005254717, 3.417733347611307 ], [ -76.485176901473835, 3.418983408825588 ], [ -76.486333427734692, 3.419073342568504 ], [ -76.486362467982488, 3.418200550438478 ], [ -76.487927657434312, 3.419330571365458 ], [ -76.487396672625565, 3.419745430644297 ], [ -76.483801309817025, 3.42813895312404 ], [ -76.484039663997237, 3.440178801283328 ], [ -76.48336271304629, 3.440489864771652 ], [ -76.482264058952666, 3.441481199325049 ], [ -76.481490370186066, 3.441158143589245 ], [ -76.476372267046528, 3.437874039333622 ], [ -76.466768981762627, 3.425430201127521 ], [ -76.466419145934026, 3.424489959607602 ], [ -76.466569249103429, 3.423528251109697 ] ] ] } }
]
}
