{
"type": "FeatureCollection",
"name": "cali_puestos",
"crs": { "type": "name", "properties": { "name": "urn:ogc:def:crs:OGC:1.3:CRS84" } },
"features": [
{ "type": "Feature", "properties": { "codigo": 310019954, "nombre": "Colegio Britanico - The British School", "barrio": "Pance", "comuna": "53" }, "geometry": { "type": "Point", "coordinates": [ -76.536024187723967, 3.31663547624201 ] } },
{ "type": "Feature", "properties": { "codigo": 310019929, "nombre": "Santa Luisa", "barrio": "Los Andes", "comuna": "56" }, "geometry": { "type": "Point", "coordinates": [ -76.575071796691304, 3.408067277082845 ] } },
{ "type": "Feature", "properties": { "codigo": 310019801, "nombre": "Colegio Benett", "barrio": "Parcelaciones Pance", "comuna": "22" }, "geometry": { "type": "Point", "coordinates": [ -76.531360573895384, 3.359300943573647 ] } },
{ "type": "Feature", "properties": { "codigo": 310012902, "nombre": "Escuela Magdalena Ortega de Nariño", "barrio": "Polvorines", "comuna": "18" }, "geometry": { "type": "Point", "coordinates": [ -76.558865061586218, 3.374316218306075 ] } },
{ "type": "Feature", "properties": { "codigo": 310012805, "nombre": "Escuela La Esperanza", "barrio": "Sect. Alto Jordan", "comuna": "18" }, "geometry": { "type": "Point", "coordinates": [ -76.553832431316394, 3.37693718936881 ] } },
{ "type": "Feature", "properties": { "codigo": 310012901, "nombre": "Colegio Americano", "barrio": "Melendez", "comuna": "18" }, "geometry": { "type": "Point", "coordinates": [ -76.544783137589349, 3.378499990733633 ] } },
{ "type": "Feature", "properties": { "codigo": 310012903, "nombre": "Academia Militar General Jose Maria Cabal", "barrio": "Cuarteles de Napoles", "comuna": "18" }, "geometry": { "type": "Point", "coordinates": [ -76.559094997617635, 3.381871938669058 ] } },
{ "type": "Feature", "properties": { "codigo": 310012602, "nombre": "Colegio Comfandi Ciudadela", "barrio": "Ciudadela Comfandi", "comuna": "17" }, "geometry": { "type": "Point", "coordinates": [ -76.522225237618088, 3.384099479909343 ] } },
{ "type": "Feature", "properties": { "codigo": 310012707, "nombre": "Escuela Juan Pablo II", "barrio": "Prados del Sur", "comuna": "18" }, "geometry": { "type": "Point", "coordinates": [ -76.555791895439768, 3.386575548178025 ] } },
{ "type": "Feature", "properties": { "codigo": 310012705, "nombre": "Escuela Alvaro Escobar Navia", "barrio": "Lourdes", "comuna": "18" }, "geometry": { "type": "Point", "coordinates": [ -76.55437623313297, 3.390570496613202 ] } },
{ "type": "Feature", "properties": { "codigo": 310012801, "nombre": "Escuela Portete de Tarqui", "barrio": "Lourdes", "comuna": "18" }, "geometry": { "type": "Point", "coordinates": [ -76.5574437521243, 3.39094048436964 ] } },
{ "type": "Feature", "properties": { "codigo": 310012803, "nombre": "Escuela Celimo Rueda", "barrio": "Alferez Real", "comuna": "18" }, "geometry": { "type": "Point", "coordinates": [ -76.548421467355112, 3.391299778734105 ] } },
{ "type": "Feature", "properties": { "codigo": 310012706, "nombre": "Instituto Central de Comercio y Bachillerato", "barrio": "Buenos Aires", "comuna": "18" }, "geometry": { "type": "Point", "coordinates": [ -76.546805916011749, 3.392049325035314 ] } },
{ "type": "Feature", "properties": { "codigo": 310012603, "nombre": "Colegio Reyes Catolicos", "barrio": "La Hacienda", "comuna": "17" }, "geometry": { "type": "Point", "coordinates": [ -76.534054262428796, 3.39257883604306 ] } },
{ "type": "Feature", "properties": { "codigo": 310012601, "nombre": "Colegio los Andes", "barrio": "Los Portales - Nuevo Rey", "comuna": "17" }, "geometry": { "type": "Point", "coordinates": [ -76.539640260173542, 3.393916352466953 ] } },
{ "type": "Feature", "properties": { "codigo": 310012804, "nombre": "John F. Kennedy", "barrio": "Caldas", "comuna": "18" }, "geometry": { "type": "Point", "coordinates": [ -76.549202079265967, 3.394993658052256 ] } },
{ "type": "Feature", "properties": { "codigo": 310012704, "nombre": "Colegio Nuestra Señora de La Consolacion", "barrio": "Los Portales - Nuevo Rey", "comuna": "17" }, "geometry": { "type": "Point", "coordinates": [ -76.540184846742193, 3.395533177775142 ] } },
{ "type": "Feature", "properties": { "codigo": 310012305, "nombre": "Colegio Ciudad Cordoba", "barrio": "Ciudad Cordoba", "comuna": "15" }, "geometry": { "type": "Point", "coordinates": [ -76.513915340718796, 3.396148685520405 ] } },
{ "type": "Feature", "properties": { "codigo": 310012503, "nombre": "Colegio Santa Isabel de Hungria Sede Ciudad 2000", "barrio": "Ciudad 2000", "comuna": "16" }, "geometry": { "type": "Point", "coordinates": [ -76.517085175124009, 3.396726712306517 ] } },
{ "type": "Feature", "properties": { "codigo": 310012406, "nombre": "Escuela Cristobal Colon", "barrio": "Mariano Ramos", "comuna": "16" }, "geometry": { "type": "Point", "coordinates": [ -76.515071957971401, 3.402650780811721 ] } },
{ "type": "Feature", "properties": { "codigo": 310013003, "nombre": "Colegio Politecnico Municipal de Cali", "barrio": "Pampalinda", "comuna": "19" }, "geometry": { "type": "Point", "coordinates": [ -76.553638446398367, 3.403554925582798 ] } },
{ "type": "Feature", "properties": { "codigo": 310012605, "nombre": "Escuela Luis Carlos Rojas Garces", "barrio": "Primero de Mayo", "comuna": "17" }, "geometry": { "type": "Point", "coordinates": [ -76.532182918956451, 3.40392291764188 ] } },
{ "type": "Feature", "properties": { "codigo": 310012703, "nombre": "Instituto Tecnico Industrial Comuna 17", "barrio": "Cañaverales - Los Samanes", "comuna": "17" }, "geometry": { "type": "Point", "coordinates": [ -76.524086353780149, 3.403802642235636 ] } },
{ "type": "Feature", "properties": { "codigo": 310013002, "nombre": "Escuela 25 de Julio", "barrio": "Camino Real - Joaquin Borrero Sinisterra", "comuna": "19" }, "geometry": { "type": "Point", "coordinates": [ -76.545352005556623, 3.405762052666633 ] } },
{ "type": "Feature", "properties": { "codigo": 310012407, "nombre": "Escuela Carlos Holmes Trujillo", "barrio": "Republica de Israel", "comuna": "16" }, "geometry": { "type": "Point", "coordinates": [ -76.512786858375335, 3.406297515225237 ] } },
{ "type": "Feature", "properties": { "codigo": 310012403, "nombre": "Centro Educativo Fe y Alegria Madre Siffredi", "barrio": "El Vallado", "comuna": "15" }, "geometry": { "type": "Point", "coordinates": [ -76.498302188656098, 3.406542711140111 ] } },
{ "type": "Feature", "properties": { "codigo": 310012405, "nombre": "Rodrigo Lloreda Caicedo", "barrio": "Mariano Ramos", "comuna": "16" }, "geometry": { "type": "Point", "coordinates": [ -76.51856351919642, 3.406613258306132 ] } },
{ "type": "Feature", "properties": { "codigo": 310012306, "nombre": "Escuela Enrrique Olaya Herrera", "barrio": "El Vallado", "comuna": "15" }, "geometry": { "type": "Point", "coordinates": [ -76.501421855615334, 3.407353100286051 ] } },
{ "type": "Feature", "properties": { "codigo": 310012502, "nombre": "Cristo Maestro", "barrio": "Union de Vivieda Popular", "comuna": "16" }, "geometry": { "type": "Point", "coordinates": [ -76.508116725347435, 3.409307387299161 ] } },
{ "type": "Feature", "properties": { "codigo": 310011504, "nombre": "Colegio Jose Maria Vivas Balcazar", "barrio": "La Selva", "comuna": "10" }, "geometry": { "type": "Point", "coordinates": [ -76.530076523165675, 3.409485208914934 ] } },
{ "type": "Feature", "properties": { "codigo": 310011501, "nombre": "Escuela Fernando Velasco", "barrio": "San Judas Tadeo I", "comuna": "10" }, "geometry": { "type": "Point", "coordinates": [ -76.523098795680482, 3.41093779838605 ] } },
{ "type": "Feature", "properties": { "codigo": 310012402, "nombre": "Institucion Educativa Carlos Holguin Mallarino", "barrio": "Los Comuneros I", "comuna": "15" }, "geometry": { "type": "Point", "coordinates": [ -76.491893953372767, 3.411003326539086 ] } },
{ "type": "Feature", "properties": { "codigo": 310011703, "nombre": "Escuela Marino Rengifo Salcedo", "barrio": "Villa del Sur", "comuna": "11" }, "geometry": { "type": "Point", "coordinates": [ -76.519944085564589, 3.411162504750017 ] } },
{ "type": "Feature", "properties": { "codigo": 310013004, "nombre": "Multiproposito", "barrio": "Sect. Cañaveralejo Guadalupe Antigua", "comuna": "19" }, "geometry": { "type": "Point", "coordinates": [ -76.561154286143477, 3.411211914981174 ] } },
{ "type": "Feature", "properties": { "codigo": 310012504, "nombre": "Libardo Madrid Valderrama", "barrio": "Union de Vivieda Popular", "comuna": "16" }, "geometry": { "type": "Point", "coordinates": [ -76.511516971719189, 3.412036278067106 ] } },
{ "type": "Feature", "properties": { "codigo": 310012308, "nombre": "Gabriel Garcia Marquez", "barrio": "Los Comuneros I", "comuna": "15" }, "geometry": { "type": "Point", "coordinates": [ -76.492306584305538, 3.413026364875753 ] } },
{ "type": "Feature", "properties": { "codigo": 310011603, "nombre": "Colegio Rafael Navia Varon", "barrio": "Departamental", "comuna": "10" }, "geometry": { "type": "Point", "coordinates": [ -76.536006325627767, 3.413473199743268 ] } },
{ "type": "Feature", "properties": { "codigo": 310012307, "nombre": "Escuela Jose Ramon Bejarano", "barrio": "Laureano Gomez", "comuna": "15" }, "geometry": { "type": "Point", "coordinates": [ -76.496059141733426, 3.413547096919868 ] } },
{ "type": "Feature", "properties": { "codigo": 310013301, "nombre": "Colegio Santa Isabel de Hungria Sede Calimio Desepaz (Colegio Municipal)", "barrio": "Calimio Decepaz", "comuna": "21" }, "geometry": { "type": "Point", "coordinates": [ -76.467858717993252, 3.414667884500786 ] } },
{ "type": "Feature", "properties": { "codigo": 310013101, "nombre": "Colegio Arquidiocesano Juan Pablo II", "barrio": "Venezuela - Urb. Cañaveralejo", "comuna": "20" }, "geometry": { "type": "Point", "coordinates": [ -76.561468241196465, 3.414844535825646 ] } },
{ "type": "Feature", "properties": { "codigo": 310012302, "nombre": "Colegio Parroquial San Francisco Javier", "barrio": "Las Orquideas", "comuna": "14" }, "geometry": { "type": "Point", "coordinates": [ -76.47713637919226, 3.415030600421709 ] } },
{ "type": "Feature", "properties": { "codigo": 310011405, "nombre": "Republica de Costa Rica", "barrio": "El Guabal", "comuna": "10" }, "geometry": { "type": "Point", "coordinates": [ -76.526189693471494, 3.415564351150725 ] } },
{ "type": "Feature", "properties": { "codigo": 310012905, "nombre": "Institucion Educativa Eustaquio Palacios", "barrio": "El Lido", "comuna": "19" }, "geometry": { "type": "Point", "coordinates": [ -76.55158130285345, 3.415904084061217 ] } },
{ "type": "Feature", "properties": { "codigo": 310011601, "nombre": "Colegio Parroquial San Juan Bautista", "barrio": "El Guabal", "comuna": "10" }, "geometry": { "type": "Point", "coordinates": [ -76.529866226012373, 3.415820611264242 ] } },
{ "type": "Feature", "properties": { "codigo": 310011905, "nombre": "Colegio Parroquial Señor de Los Milagros", "barrio": "El Vergel", "comuna": "13" }, "geometry": { "type": "Point", "coordinates": [ -76.500998163755369, 3.417298052252455 ] } },
{ "type": "Feature", "properties": { "codigo": 310012501, "nombre": "Pablo Neruda", "barrio": "Antonio Nariño", "comuna": "16" }, "geometry": { "type": "Point", "coordinates": [ -76.508420105675356, 3.416787735080011 ] } },
{ "type": "Feature", "properties": { "codigo": 310013201, "nombre": "Escuela Juana de Caicedo y Cuero", "barrio": "El Lido", "comuna": "19" }, "geometry": { "type": "Point", "coordinates": [ -76.553973994929933, 3.417669816143517 ] } },
{ "type": "Feature", "properties": { "codigo": 310012301, "nombre": "Escuela Gabriela Mistral", "barrio": "Alfonso Bonilla Aragon", "comuna": "14" }, "geometry": { "type": "Point", "coordinates": [ -76.480552538916371, 3.417777503211926 ] } },
{ "type": "Feature", "properties": { "codigo": 310012001, "nombre": "Rodrigo Lloreda Caicedo", "barrio": "El Poblado I", "comuna": "13" }, "geometry": { "type": "Point", "coordinates": [ -76.498088900771279, 3.417784308453958 ] } },
{ "type": "Feature", "properties": { "codigo": 310011702, "nombre": "Escuela Ciudad Modelo", "barrio": "Los Sauces", "comuna": "11" }, "geometry": { "type": "Point", "coordinates": [ -76.513308066544923, 3.41780449623044 ] } },
{ "type": "Feature", "properties": { "codigo": 310012205, "nombre": "Colegio Fe y Alegria Fray Luis Amigo", "barrio": "Manuela Beltran", "comuna": "14" }, "geometry": { "type": "Point", "coordinates": [ -76.471348346535535, 3.418230118824451 ] } },
{ "type": "Feature", "properties": { "codigo": 310011503, "nombre": "Institucion Educativa Carlos Holguin Lloreda", "barrio": "El Guabal", "comuna": "10" }, "geometry": { "type": "Point", "coordinates": [ -76.52250796343192, 3.418360158240239 ] } },
{ "type": "Feature", "properties": { "codigo": 310013204, "nombre": "Escuela Sofia Camargo de Lleras", "barrio": "Lleras Camargo", "comuna": "20" }, "geometry": { "type": "Point", "coordinates": [ -76.561672725736983, 3.418575439686927 ] } },
{ "type": "Feature", "properties": { "codigo": 310012304, "nombre": "Institucion Educativa Ciudadela Nuevo Latir", "barrio": "Alfonso Bonilla Aragon", "comuna": "14" }, "geometry": { "type": "Point", "coordinates": [ -76.486910278767979, 3.419492085851723 ] } },
{ "type": "Feature", "properties": { "codigo": 310011906, "nombre": "Escuela El Diamante", "barrio": "El Diamante", "comuna": "13" }, "geometry": { "type": "Point", "coordinates": [ -76.50192821072612, 3.420189057909234 ] } },
{ "type": "Feature", "properties": { "codigo": 310011701, "nombre": "Agustin Nieto Caballero", "barrio": "El Jardin", "comuna": "11" }, "geometry": { "type": "Point", "coordinates": [ -76.518341658681607, 3.420440687386654 ] } },
{ "type": "Feature", "properties": { "codigo": 310012104, "nombre": "Luz Haydee Guerrero Molina", "barrio": "Los Robles", "comuna": "13" }, "geometry": { "type": "Point", "coordinates": [ -76.494336092736759, 3.42078626383744 ] } },
{ "type": "Feature", "properties": { "codigo": 310011804, "nombre": "Colegio Fe y Alegria Madre Alberta", "barrio": "La Gran Colombia", "comuna": "11" }, "geometry": { "type": "Point", "coordinates": [ -76.506800730556009, 3.42234867359743 ] } },
{ "type": "Feature", "properties": { "codigo": 310013202, "nombre": "Escuela Simon Bolivar", "barrio": "Siloe", "comuna": "20" }, "geometry": { "type": "Point", "coordinates": [ -76.553274227691887, 3.422360098908424 ] } },
{ "type": "Feature", "properties": { "codigo": 310012005, "nombre": "Escuela Santa Rosa", "barrio": "El Poblado II", "comuna": "13" }, "geometry": { "type": "Point", "coordinates": [ -76.488126320640561, 3.422662281756714 ] } },
{ "type": "Feature", "properties": { "codigo": 310013106, "nombre": "Escuela Luis Lopez de Mesa", "barrio": "Siloe", "comuna": "20" }, "geometry": { "type": "Point", "coordinates": [ -76.554353654848313, 3.422919646924891 ] } },
{ "type": "Feature", "properties": { "codigo": 310013007, "nombre": "Liceo Departamental Femenino", "barrio": "Eucaristico", "comuna": "19" }, "geometry": { "type": "Point", "coordinates": [ -76.538869020966601, 3.423101308353294 ] } },
{ "type": "Feature", "properties": { "codigo": 310011704, "nombre": "Escuela Susana Vinasco de Quintana", "barrio": "San Carlos", "comuna": "11" }, "geometry": { "type": "Point", "coordinates": [ -76.513619819064189, 3.423382760459863 ] } },
{ "type": "Feature", "properties": { "codigo": 310012303, "nombre": "Elias Salazar Garcia", "barrio": "Manuela Beltran", "comuna": "14" }, "geometry": { "type": "Point", "coordinates": [ -76.471857277069844, 3.423713804550839 ] } },
{ "type": "Feature", "properties": { "codigo": 310011502, "nombre": "Normal Superior Santiago de Cali", "barrio": "Colseguros Andes", "comuna": "10" }, "geometry": { "type": "Point", "coordinates": [ -76.531075131594946, 3.424299585023878 ] } },
{ "type": "Feature", "properties": { "codigo": 310012201, "nombre": "Institucion Educativa Puertas del Sol", "barrio": "Manuela Beltran", "comuna": "14" }, "geometry": { "type": "Point", "coordinates": [ -76.474801139375359, 3.431612687110962 ] } },
{ "type": "Feature", "properties": { "codigo": 310013101, "nombre": "Colegio Francisco Jose de Caldas", "barrio": "Santa Isabel", "comuna": "19" }, "geometry": { "type": "Point", "coordinates": [ -76.548127202791846, 3.424849804919561 ] } },
{ "type": "Feature", "properties": { "codigo": 310011602, "nombre": "Escuela San Roque", "barrio": "Cristobal Colon", "comuna": "10" }, "geometry": { "type": "Point", "coordinates": [ -76.525407351566841, 3.42515719214769 ] } },
{ "type": "Feature", "properties": { "codigo": 310012004, "nombre": "Centro Educativo Calipso Comfandi", "barrio": "Calipso", "comuna": "13" }, "geometry": { "type": "Point", "coordinates": [ -76.500267136880353, 3.426313843903354 ] } },
{ "type": "Feature", "properties": { "codigo": 310011801, "nombre": "Jose Vicente Concha", "barrio": "La Fortaleza", "comuna": "11" }, "geometry": { "type": "Point", "coordinates": [ -76.513743454128459, 3.426486922393667 ] } },
{ "type": "Feature", "properties": { "codigo": 310013001, "nombre": "Colegio Santa Maria Stella Maris", "barrio": "Santa Isabel", "comuna": "19" }, "geometry": { "type": "Point", "coordinates": [ -76.549410832448885, 3.426634747240529 ] } },
{ "type": "Feature", "properties": { "codigo": 310011805, "nombre": "IE Juan XXIII sede Ciudad de Cali", "barrio": "Doce de Octubre", "comuna": "12" }, "geometry": { "type": "Point", "coordinates": [ -76.504066917838173, 3.427138395189336 ] } },
{ "type": "Feature", "properties": { "codigo": 310012006, "nombre": "Colegio Los Lagos", "barrio": "Los Lagos", "comuna": "13" }, "geometry": { "type": "Point", "coordinates": [ -76.485562676129518, 3.430518695368625 ] } },
{ "type": "Feature", "properties": { "codigo": 310013206, "nombre": "Colegio Santa Isabel de Hungria Sede Invicali Desepaz", "barrio": "Desepaz Invicali", "comuna": "21" }, "geometry": { "type": "Point", "coordinates": [ -76.463358253889012, 3.42747642016116 ] } },
{ "type": "Feature", "properties": { "codigo": 310012002, "nombre": "Escuela Miguel Camacho Perea", "barrio": "Los Comuneros II", "comuna": "13" }, "geometry": { "type": "Point", "coordinates": [ -76.495024686386742, 3.42742749763922 ] } },
{ "type": "Feature", "properties": { "codigo": 310013203, "nombre": "Antonia Santos", "barrio": "Belen", "comuna": "20" }, "geometry": { "type": "Point", "coordinates": [ -76.553912673067771, 3.427564798557898 ] } },
{ "type": "Feature", "properties": { "codigo": 310012202, "nombre": "Escuela Raul Silva Holguin", "barrio": "Jose Manuel Marroquin I", "comuna": "14" }, "geometry": { "type": "Point", "coordinates": [ -76.480811431089194, 3.427362811575404 ] } },
{ "type": "Feature", "properties": { "codigo": 310012906, "nombre": "Instituto Para Niños Ciegos y Sordos del Valle del Cauca", "barrio": "San Fernando Nuevo", "comuna": "19" }, "geometry": { "type": "Point", "coordinates": [ -76.544238500718208, 3.427802020842227 ] } },
{ "type": "Feature", "properties": { "codigo": 310012203, "nombre": "Institucion Educativa Monseñor Ramon Arcila", "barrio": "Jose Manuel Marroquin II", "comuna": "14" }, "geometry": { "type": "Point", "coordinates": [ -76.481213222037297, 3.428163064862275 ] } },
{ "type": "Feature", "properties": { "codigo": 310011904, "nombre": "Colegio La Presentacion El Paraiso", "barrio": "El Paraiso", "comuna": "12" }, "geometry": { "type": "Point", "coordinates": [ -76.506586462426014, 3.430569639718366 ] } },
{ "type": "Feature", "properties": { "codigo": 310013302, "nombre": "Colegio Fundacion Compartir", "barrio": "Compartir", "comuna": "21" }, "geometry": { "type": "Point", "coordinates": [ -76.47021206060549, 3.431300321180614 ] } },
{ "type": "Feature", "properties": { "codigo": 310011604, "nombre": "General Carlos Alban", "barrio": "Santa Elena", "comuna": "10" }, "geometry": { "type": "Point", "coordinates": [ -76.524819930449993, 3.431678149021534 ] } },
{ "type": "Feature", "properties": { "codigo": 310011803, "nombre": "Diez de Mayo", "barrio": "Aguablanca", "comuna": "11" }, "geometry": { "type": "Point", "coordinates": [ -76.518219114878931, 3.431966945132767 ] } },
{ "type": "Feature", "properties": { "codigo": 310013102, "nombre": "Satelite Joaquin de Caicedo y Cuero - Camilo Torres", "barrio": "Urb. Colseguros", "comuna": "19" }, "geometry": { "type": "Point", "coordinates": [ -76.5302170772962, 3.432195710640934 ] } },
{ "type": "Feature", "properties": { "codigo": 310011802, "nombre": "Ciudad de Cali", "barrio": "Prados de Oriente", "comuna": "11" }, "geometry": { "type": "Point", "coordinates": [ -76.514385353229926, 3.432241420010451 ] } },
{ "type": "Feature", "properties": { "codigo": 310012102, "nombre": "Colegio Jesus Villafañe Franco", "barrio": "Sect. Laguna del Pondaje", "comuna": "13" }, "geometry": { "type": "Point", "coordinates": [ -76.487409660076707, 3.43267670074158 ] } },
{ "type": "Feature", "properties": { "codigo": 310011901, "nombre": "Colegio Hernando Navia Varon", "barrio": "Nueva Floresta", "comuna": "12" }, "geometry": { "type": "Point", "coordinates": [ -76.49963603594243, 3.432851939079168 ] } },
{ "type": "Feature", "properties": { "codigo": 310011806, "nombre": "Marice Sinisterra", "barrio": "El Rodeo", "comuna": "12" }, "geometry": { "type": "Point", "coordinates": [ -76.503467962433845, 3.435325126537071 ] } },
{ "type": "Feature", "properties": { "codigo": 310011402, "nombre": "Escuela Olga Lucia Lloreda", "barrio": "Junin", "comuna": "09" }, "geometry": { "type": "Point", "coordinates": [ -76.526839395235825, 3.435338245244065 ] } },
{ "type": "Feature", "properties": { "codigo": 310013103, "nombre": "Escuela La Gran Colombia", "barrio": "El Cedro", "comuna": "19" }, "geometry": { "type": "Point", "coordinates": [ -76.536921320149347, 3.435934856842656 ] } },
{ "type": "Feature", "properties": { "codigo": 310012007, "nombre": "Escuela Bartolome Loboguerrero", "barrio": "Lleras Restrepo", "comuna": "13" }, "geometry": { "type": "Point", "coordinates": [ -76.493646012365929, 3.436060104711489 ] } },
{ "type": "Feature", "properties": { "codigo": 310011902, "nombre": "Escuela Fenalco Asturias", "barrio": "El Rodeo", "comuna": "12" }, "geometry": { "type": "Point", "coordinates": [ -76.500470710862601, 3.436691446836906 ] } },
{ "type": "Feature", "properties": { "codigo": 310011404, "nombre": "Alfredo Vasquez Cobo", "barrio": "Guayaquil", "comuna": "09" }, "geometry": { "type": "Point", "coordinates": [ -76.525246204882393, 3.436846596172459 ] } },
{ "type": "Feature", "properties": { "codigo": 310012204, "nombre": "Centro Docente Bartolome Mitre", "barrio": "Jose Manuel Marroquin II", "comuna": "14" }, "geometry": { "type": "Point", "coordinates": [ -76.483025489578736, 3.438377862175408 ] } },
{ "type": "Feature", "properties": { "codigo": 310012103, "nombre": "Colegio Enrique Olaya Herrera", "barrio": "Ulpiano Lloreda", "comuna": "13" }, "geometry": { "type": "Point", "coordinates": [ -76.491899324622693, 3.439370613954605 ] } },
{ "type": "Feature", "properties": { "codigo": 310011306, "nombre": "Escuela Nuestra Señora de Los Remedios", "barrio": "Belalcazar", "comuna": "09" }, "geometry": { "type": "Point", "coordinates": [ -76.521628352933561, 3.439755568943563 ] } },
{ "type": "Feature", "properties": { "codigo": 310012105, "nombre": "Escuela La Anunciacion", "barrio": "Alirio Mora Beltran", "comuna": "14" }, "geometry": { "type": "Point", "coordinates": [ -76.480065688265512, 3.439906503697531 ] } },
{ "type": "Feature", "properties": { "codigo": 310011105, "nombre": "Escuela Manuel Rebolledo", "barrio": "Rafael Uribe Uribe", "comuna": "08" }, "geometry": { "type": "Point", "coordinates": [ -76.510765595433725, 3.439918683470225 ] } },
{ "type": "Feature", "properties": { "codigo": 310011903, "nombre": "Institucion Educativa Julio Caicedo y Tellez", "barrio": "Nueva Floresta", "comuna": "12" }, "geometry": { "type": "Point", "coordinates": [ -76.49455798321479, 3.440425425196388 ] } },
{ "type": "Feature", "properties": { "codigo": 310011305, "nombre": "Escuela Marco Fidel Suarez", "barrio": "Alameda", "comuna": "09" }, "geometry": { "type": "Point", "coordinates": [ -76.534890502847077, 3.440546808913636 ] } },
{ "type": "Feature", "properties": { "codigo": 310011403, "nombre": "Instituto Tecnico Industrial Antonio Jose Camacho - I.T.I.", "barrio": "Guayaquil", "comuna": "09" }, "geometry": { "type": "Point", "coordinates": [ -76.529476324588529, 3.440929911170518 ] } },
{ "type": "Feature", "properties": { "codigo": 310011202, "nombre": "Colegio Santa Fe", "barrio": "Santa Fe", "comuna": "08" }, "geometry": { "type": "Point", "coordinates": [ -76.507547218863834, 3.441477011317521 ] } },
{ "type": "Feature", "properties": { "codigo": 310010502, "nombre": "Colegio Santa Librada", "barrio": "San Juan Bosco", "comuna": "03" }, "geometry": { "type": "Point", "coordinates": [ -76.535641300304775, 3.441650043731077 ] } },
{ "type": "Feature", "properties": { "codigo": 310013104, "nombre": "Los Cristales", "barrio": "El Mortiñal", "comuna": "19" }, "geometry": { "type": "Point", "coordinates": [ -76.549114218574019, 3.441988841600115 ] } },
{ "type": "Feature", "properties": { "codigo": 310010503, "nombre": "Normal Superior Los Farallones", "barrio": "Navarro - La chanca", "comuna": "03" }, "geometry": { "type": "Point", "coordinates": [ -76.544007945313965, 3.442623688096716 ] } },
{ "type": "Feature", "properties": { "codigo": 310011301, "nombre": "Evaristo Garcia", "barrio": "Saavedra Galindo", "comuna": "08" }, "geometry": { "type": "Point", "coordinates": [ -76.513465355843465, 3.442737703254965 ] } },
{ "type": "Feature", "properties": { "codigo": 310011303, "nombre": "Colegio Nuestra Señora de La Anunciacion", "barrio": "El Trebol", "comuna": "08" }, "geometry": { "type": "Point", "coordinates": [ -76.496369156949299, 3.444764125555513 ] } },
{ "type": "Feature", "properties": { "codigo": 310011304, "nombre": "Colegio San Francisco de Asis", "barrio": "Chapinero", "comuna": "08" }, "geometry": { "type": "Point", "coordinates": [ -76.499638285522579, 3.444754036310429 ] } },
{ "type": "Feature", "properties": { "codigo": 310011203, "nombre": "Institucion Educativa Benjamin Herrera", "barrio": "Benjamin Herrera", "comuna": "08" }, "geometry": { "type": "Point", "coordinates": [ -76.517685888109042, 3.446913637228495 ] } },
{ "type": "Feature", "properties": { "codigo": 310011201, "nombre": "Institucion Educativa Las Americas", "barrio": "Las Americas", "comuna": "08" }, "geometry": { "type": "Point", "coordinates": [ -76.507202969189109, 3.446938260501079 ] } },
{ "type": "Feature", "properties": { "codigo": 310011302, "nombre": "Colegio Leon de Greiff", "barrio": "Villacolombia", "comuna": "08" }, "geometry": { "type": "Point", "coordinates": [ -76.500050782907053, 3.447388742526349 ] } },
{ "type": "Feature", "properties": { "codigo": 310011104, "nombre": "Siete de Agosto", "barrio": "Siete de Agosto", "comuna": "07" }, "geometry": { "type": "Point", "coordinates": [ -76.486581992972987, 3.447275813070638 ] } },
{ "type": "Feature", "properties": { "codigo": 310011401, "nombre": "Escuela Republica de Argentina", "barrio": "Obrero", "comuna": "09" }, "geometry": { "type": "Point", "coordinates": [ -76.519331030385828, 3.447801457447054 ] } },
{ "type": "Feature", "properties": { "codigo": 310010501, "nombre": "Escuela Carlos A. Sardi Garces", "barrio": "San Antonio", "comuna": "03" }, "geometry": { "type": "Point", "coordinates": [ -76.539471028390807, 3.448260276608385 ] } },
{ "type": "Feature", "properties": { "codigo": 310011003, "nombre": "Juan Bautista de La Salle", "barrio": "Urb. El Angel del Hogar", "comuna": "07" }, "geometry": { "type": "Point", "coordinates": [ -76.481683792417485, 3.448421143561875 ] } },
{ "type": "Feature", "properties": { "codigo": 310011002, "nombre": "Escuela Manuel Maria Mallarino", "barrio": "Puerto Mallarino", "comuna": "07" }, "geometry": { "type": "Point", "coordinates": [ -76.479106433168155, 3.44851634742259 ] } },
{ "type": "Feature", "properties": { "codigo": 310011103, "nombre": "Escuela Ana Maria Vernaza", "barrio": "Siete de Agosto", "comuna": "07" }, "geometry": { "type": "Point", "coordinates": [ -76.484477374057988, 3.450407292911329 ] } },
{ "type": "Feature", "properties": { "codigo": 310010106, "nombre": "Institucion Educativa Jose Holguin Garces", "barrio": "Terron Colorado", "comuna": "01" }, "geometry": { "type": "Point", "coordinates": [ -76.567344399797349, 3.452225007294374 ] } },
{ "type": "Feature", "properties": { "codigo": 310010202, "nombre": "Marice Sinisterra Sede Terron Colorado", "barrio": "Vista Hermosa", "comuna": "01" }, "geometry": { "type": "Point", "coordinates": [ -76.576180176807014, 3.45277105716638 ] } },
{ "type": "Feature", "properties": { "codigo": 310011001, "nombre": "Colegio Vicente Borrero Costa", "barrio": "Alfonso Lopez III", "comuna": "07" }, "geometry": { "type": "Point", "coordinates": [ -76.480175824544034, 3.453482647306116 ] } },
{ "type": "Feature", "properties": { "codigo": 310010105, "nombre": "Escuela Jose Acevedo y Gomez", "barrio": "Vista Hermosa", "comuna": "01" }, "geometry": { "type": "Point", "coordinates": [ -76.577313166335585, 3.454033033891556 ] } },
{ "type": "Feature", "properties": { "codigo": 310011004, "nombre": "Alfonso Lopez Pumarejo", "barrio": "Alfonso Lopez III", "comuna": "07" }, "geometry": { "type": "Point", "coordinates": [ -76.483529075484512, 3.454033538963814 ] } },
{ "type": "Feature", "properties": { "codigo": 310010504, "nombre": "Escuela Republica de Mexico", "barrio": "San Nicolas", "comuna": "03" }, "geometry": { "type": "Point", "coordinates": [ -76.525061736427332, 3.454214991213066 ] } },
{ "type": "Feature", "properties": { "codigo": 310010107, "nombre": "Institucion Educativa Jose Celestino Mutis", "barrio": "Terron Colorado", "comuna": "01" }, "geometry": { "type": "Point", "coordinates": [ -76.55902228613482, 3.454956565791356 ] } },
{ "type": "Feature", "properties": { "codigo": 310010201, "nombre": "Institucion Educativa Cecilia Caballero de Lopez", "barrio": "Vista Hermosa", "comuna": "01" }, "geometry": { "type": "Point", "coordinates": [ -76.582615280003793, 3.457121155315596 ] } },
{ "type": "Feature", "properties": { "codigo": 310010203, "nombre": "Colegio Santa Isabel de Hungria Sede Aguacatal", "barrio": "Aguacatal", "comuna": "01" }, "geometry": { "type": "Point", "coordinates": [ -76.56281982775414, 3.456347410555836 ] } },
{ "type": "Feature", "properties": { "codigo": 310011101, "nombre": "Colegio Manuel Maria Mallarino", "barrio": "Las Ceibas", "comuna": "07" }, "geometry": { "type": "Point", "coordinates": [ -76.488623870347865, 3.457601606173914 ] } },
{ "type": "Feature", "properties": { "codigo": 310010906, "nombre": "Escuela Los Farallones", "barrio": "Alfonso Lopez II", "comuna": "07" }, "geometry": { "type": "Point", "coordinates": [ -76.48186114209264, 3.45832567111789 ] } },
{ "type": "Feature", "properties": { "codigo": 310010905, "nombre": "Colegio Santa Isabel de Hungria Sede Alfonso Lopez", "barrio": "Alfonso Lopez II", "comuna": "07" }, "geometry": { "type": "Point", "coordinates": [ -76.479804236463607, 3.459403758655039 ] } },
{ "type": "Feature", "properties": { "codigo": 310011102, "nombre": "Escuela Carlos Holguin Sardi", "barrio": "San Marino", "comuna": "07" }, "geometry": { "type": "Point", "coordinates": [ -76.487931984590858, 3.460290741003409 ] } },
{ "type": "Feature", "properties": { "codigo": 310010204, "nombre": "Sede Aguacatal de la Isaias Gamboa", "barrio": "Aguacatal", "comuna": "01" }, "geometry": { "type": "Point", "coordinates": [ -76.560338481955711, 3.462343711769519 ] } },
{ "type": "Feature", "properties": { "codigo": 310010604, "nombre": "La Merced", "barrio": "Salomia", "comuna": "04" }, "geometry": { "type": "Point", "coordinates": [ -76.503012816085999, 3.4623909066862 ] } },
{ "type": "Feature", "properties": { "codigo": 310010505, "nombre": "Manuela Beltran", "barrio": "Santander", "comuna": "04" }, "geometry": { "type": "Point", "coordinates": [ -76.514241318954362, 3.462994206011471 ] } },
{ "type": "Feature", "properties": { "codigo": 310010703, "nombre": "Escuela Maria Panesso", "barrio": "El Sena", "comuna": "05" }, "geometry": { "type": "Point", "coordinates": [ -76.503693640342689, 3.465120288393787 ] } },
{ "type": "Feature", "properties": { "codigo": 310010602, "nombre": "San Vicente de Paul", "barrio": "Salomia", "comuna": "04" }, "geometry": { "type": "Point", "coordinates": [ -76.505932900747069, 3.465227451356427 ] } },
{ "type": "Feature", "properties": { "codigo": 310010601, "nombre": "Colegio CASD Sede Santo Tomas", "barrio": "Sultana - Berlina", "comuna": "04" }, "geometry": { "type": "Point", "coordinates": [ -76.516900037541447, 3.46642638073513 ] } },
{ "type": "Feature", "properties": { "codigo": 310010506, "nombre": "Escuela Jose Antonio Galan", "barrio": "Popular", "comuna": "04" }, "geometry": { "type": "Point", "coordinates": [ -76.512675003597352, 3.469212230697215 ] } },
{ "type": "Feature", "properties": { "codigo": 310010704, "nombre": "Escuela Mario Lloreda", "barrio": "El Sena", "comuna": "05" }, "geometry": { "type": "Point", "coordinates": [ -76.503354975313869, 3.471232057807088 ] } },
{ "type": "Feature", "properties": { "codigo": 310010507, "nombre": "Rafael Zamorano", "barrio": "Guillermo Valencia", "comuna": "04" }, "geometry": { "type": "Point", "coordinates": [ -76.509412911195767, 3.472120558778714 ] } },
{ "type": "Feature", "properties": { "codigo": 310010702, "nombre": "Mariano Ospina Perez", "barrio": "Los Guayacanes", "comuna": "05" }, "geometry": { "type": "Point", "coordinates": [ -76.488780547188369, 3.472473687396983 ] } },
{ "type": "Feature", "properties": { "codigo": 310010304, "nombre": "Colegio Hispanoamericano", "barrio": "Prados del Norte", "comuna": "02" }, "geometry": { "type": "Point", "coordinates": [ -76.522484637926695, 3.473443454186896 ] } },
{ "type": "Feature", "properties": { "codigo": 310010901, "nombre": "Escuela 3 de Julio", "barrio": "La Rivera I", "comuna": "06" }, "geometry": { "type": "Point", "coordinates": [ -76.486471581105945, 3.475635933491903 ] } },
{ "type": "Feature", "properties": { "codigo": 310010805, "nombre": "Escuela San Jorge", "barrio": "Petecuy III", "comuna": "06" }, "geometry": { "type": "Point", "coordinates": [ -76.481448698649757, 3.475796076203375 ] } },
{ "type": "Feature", "properties": { "codigo": 310010404, "nombre": "Colegio Leonistico La Merced", "barrio": "Vipasa", "comuna": "02" }, "geometry": { "type": "Point", "coordinates": [ -76.519680640444676, 3.479334543313502 ] } },
{ "type": "Feature", "properties": { "codigo": 310010603, "nombre": "Instituto Comercial Arquidiocesano", "barrio": "Olaya Herrera", "comuna": "04" }, "geometry": { "type": "Point", "coordinates": [ -76.508560364996882, 3.47992493957179 ] } },
{ "type": "Feature", "properties": { "codigo": 310010701, "nombre": "Escuela Celmira Bueno de Orejuela", "barrio": "Chiminangos II", "comuna": "05" }, "geometry": { "type": "Point", "coordinates": [ -76.493569113515605, 3.47845799805012 ] } },
{ "type": "Feature", "properties": { "codigo": 310010806, "nombre": "Pedro Antonio Molina", "barrio": "San Luis", "comuna": "06" }, "geometry": { "type": "Point", "coordinates": [ -76.487560389640137, 3.481884751657617 ] } },
{ "type": "Feature", "properties": { "codigo": 310010508, "nombre": "Colegio Inem Jorge Isaacs", "barrio": "Flora Industrial", "comuna": "04" }, "geometry": { "type": "Point", "coordinates": [ -76.502136221400193, 3.481836278081527 ] } },
{ "type": "Feature", "properties": { "codigo": 310010902, "nombre": "Escuela Atanasio Girardot", "barrio": "Los Alcazares", "comuna": "06" }, "geometry": { "type": "Point", "coordinates": [ -76.491440755065852, 3.487675541029154 ] } },
{ "type": "Feature", "properties": { "codigo": 310010401, "nombre": "Institucion Educativa Santa Cecilia", "barrio": "Ciudad Los Alamos", "comuna": "02" }, "geometry": { "type": "Point", "coordinates": [ -76.508742335769071, 3.488282497820239 ] } },
{ "type": "Feature", "properties": { "codigo": 310010904, "nombre": "Los Vencedores", "barrio": "San Luis II", "comuna": "06" }, "geometry": { "type": "Point", "coordinates": [ -76.487765160832723, 3.488622631903554 ] } },
{ "type": "Feature", "properties": { "codigo": 310010803, "nombre": "Colegio Santa Isabel de Hungria Sede Calimio Norte", "barrio": "Urb. Calimio", "comuna": "06" }, "geometry": { "type": "Point", "coordinates": [ -76.485491955635425, 3.489247207007567 ] } },
{ "type": "Feature", "properties": { "codigo": 310010403, "nombre": "Escuela Brisas de Los Alamos", "barrio": "Brisas de Los Alamos", "comuna": "02" }, "geometry": { "type": "Point", "coordinates": [ -76.504530802383456, 3.491574267894871 ] } },
{ "type": "Feature", "properties": { "codigo": 310010802, "nombre": "Escuela Pablo Emilio Caicedo", "barrio": "Paso del Comercio", "comuna": "06" }, "geometry": { "type": "Point", "coordinates": [ -76.489951525437988, 3.493586007005657 ] } },
{ "type": "Feature", "properties": { "codigo": 310010801, "nombre": "Escuela Las Americas", "barrio": "Ciudadela Floralia", "comuna": "06" }, "geometry": { "type": "Point", "coordinates": [ -76.491412237727459, 3.496981639728727 ] } },
{ "type": "Feature", "properties": { "codigo": 310010804, "nombre": "Cecilia Muñoz Ricaurte", "barrio": "Ciudadela Floralia", "comuna": "06" }, "geometry": { "type": "Point", "coordinates": [ -76.495020345806182, 3.497997379650235 ] } },
{ "type": "Feature", "properties": { "codigo": 310019001, "nombre": "Colegio Comfandi Potrero Grande", "barrio": "Potrero Grande", "comuna": "21" }, "geometry": { "type": "Point", "coordinates": [ -76.469261829214616, 3.407421093085572 ] } },
{ "type": "Feature", "properties": { "codigo": 310019948, "nombre": "Institucion Educativa Los andes sede Tierra de Hombres", "barrio": "Los Andes", "comuna": "56" }, "geometry": { "type": "Point", "coordinates": [ -76.594803320518395, 3.439540903645307 ] } },
{ "type": "Feature", "properties": { "codigo": 310019965, "nombre": "Institucion Educativa El Saladito sede Francisco Jose Mera", "barrio": "El Saladito", "comuna": "60" }, "geometry": { "type": "Point", "coordinates": [ -76.606254445935221, 3.481832024614627 ] } },
{ "type": "Feature", "properties": { "codigo": 310019946, "nombre": "Institucion Educativa Golondrinas sede Paraiso Niños", "barrio": "Golondrinas", "comuna": "65" }, "geometry": { "type": "Point", "coordinates": [ -76.553829900053429, 3.495258711457201 ] } },
{ "type": "Feature", "properties": { "codigo": 310019957, "nombre": "Institucion Educativa Montebello sede Andres Joaquin Lenis", "barrio": "Montebello", "comuna": "64" }, "geometry": { "type": "Point", "coordinates": [ -76.554969381587355, 3.47200156245069 ] } },
{ "type": "Feature", "properties": { "codigo": 310019954, "nombre": "Institucion Educativa Montebello satelite Santa Librada", "barrio": "Montebello", "comuna": "64" }, "geometry": { "type": "Point", "coordinates": [ -76.547406553460903, 3.484137209763503 ] } },
{ "type": "Feature", "properties": { "codigo": 310019933, "nombre": "Institucion Educativa La Paz sede Sagrado Corazon de Jesus", "barrio": "La Castilla", "comuna": "62" }, "geometry": { "type": "Point", "coordinates": [ -76.576334559179827, 3.49391122970723 ] } },
{ "type": "Feature", "properties": { "codigo": 310019953, "nombre": "Institucion Educativa corregimiento Villacarmelo", "barrio": "Villacarmelo", "comuna": "55" }, "geometry": { "type": "Point", "coordinates": [ -76.616930789743989, 3.378301577008361 ] } },
{ "type": "Feature", "properties": { "codigo": 310019949, "nombre": "Institucion Educativa Villacarmelo - Cacique Calarca", "barrio": "Villacarmelo", "comuna": "55" }, "geometry": { "type": "Point", "coordinates": [ -76.592001895983273, 3.391946894827933 ] } },
{ "type": "Feature", "properties": { "codigo": 310019926, "nombre": "Institucion Educativa La Buitrera sede Jose Maria Garcia de Toledo", "barrio": "La Buitrera", "comuna": "54" }, "geometry": { "type": "Point", "coordinates": [ -76.564074690774291, 3.361842498118552 ] } },
{ "type": "Feature", "properties": { "codigo": 310019953, "nombre": "Institucion Educativa Pance sede Pio XII", "barrio": "La Buitrera", "comuna": "54" }, "geometry": { "type": "Point", "coordinates": [ -76.590941007447313, 3.34374478645793 ] } },
{ "type": "Feature", "properties": { "codigo": 310019919, "nombre": "Institucion Educativa Felidia sedes Republica de Cuba y Jose Holguin Garces", "barrio": "Felidia", "comuna": "59" }, "geometry": { "type": "Point", "coordinates": [ -76.627723077254785, 3.467570450137414 ] } },
{ "type": "Feature", "properties": { "codigo": 310019921, "nombre": "Institucion Educativa El Hormiguero sede Antonio Villavicencio", "barrio": "El Hormiguero", "comuna": "52" }, "geometry": { "type": "Point", "coordinates": [ -76.479035993645326, 3.312439793263976 ] } },
{ "type": "Feature", "properties": { "codigo": 310019937, "nombre": "Institucion Educativa El Saladito sede Boyaca", "barrio": "La Elvira", "comuna": "61" }, "geometry": { "type": "Point", "coordinates": [ -76.607603495691365, 3.520425838083724 ] } },
{ "type": "Feature", "properties": { "codigo": 310019938, "nombre": "Institucion Educativa El Saladito sede Francisco Miranda", "barrio": "La Elvira", "comuna": "61" }, "geometry": { "type": "Point", "coordinates": [ -76.619938445323129, 3.513029912136219 ] } },
{ "type": "Feature", "properties": { "codigo": 310019945, "nombre": "Institucion Educativa La Paz sede satelite Manuel Saavedra Galindo", "barrio": "La Paz", "comuna": "63" }, "geometry": { "type": "Point", "coordinates": [ -76.569910058453118, 3.520504567999462 ] } },
{ "type": "Feature", "properties": { "codigo": 310019957, "nombre": "Institucion Educativa Pichinde sede Satelite Jose Holguin Garces", "barrio": "Pichinde", "comuna": "57" }, "geometry": { "type": "Point", "coordinates": [ -76.613514618065309, 3.43700441316828 ] } },
{ "type": "Feature", "properties": { "codigo": 310019965, "nombre": "Institucion Educativa Navarro sede San Juan Bautista de la Salle", "barrio": "Navarro", "comuna": "51" }, "geometry": { "type": "Point", "coordinates": [ -76.465243131478758, 3.391800677527276 ] } },
{ "type": "Feature", "properties": { "codigo": 310012401, "nombre": "Isaias Duarte Cancino", "barrio": "Navarro", "comuna": "51" }, "geometry": { "type": "Point", "coordinates": [ -76.487005609038306, 3.411586417814548 ] } },
{ "type": "Feature", "properties": { "codigo": 310010205, "nombre": "Institución Universitaria Antonio José Camacho", "barrio": "Santa Mónica", "comuna": "02" }, "geometry": { "type": "Point", "coordinates": [ -76.527035507781974, 3.47097765036368 ] } },
{ "type": "Feature", "properties": { "codigo": 310010108, "nombre": "Coliseo Bajo Aguacatal", "barrio": "Aguacatal", "comuna": "01" }, "geometry": { "type": "Point", "coordinates": [ -76.550452717981457, 3.458607479820923 ] } },
{ "type": "Feature", "properties": { "codigo": 310010301, "nombre": "C.A.M.", "barrio": "Centenario", "comuna": "02" }, "geometry": { "type": "Point", "coordinates": [ -76.534159527060581, 3.454519123706523 ] } },
{ "type": "Feature", "properties": { "codigo": 310010206, "nombre": "Edificio Ferrocarriles Nacionales", "barrio": "San Vicente", "comuna": "02" }, "geometry": { "type": "Point", "coordinates": [ -76.523052063316214, 3.466520935662591 ] } },
{ "type": "Feature", "properties": { "codigo": 310010302, "nombre": "Colegio Odontológico", "barrio": "Granada", "comuna": "02" }, "geometry": { "type": "Point", "coordinates": [ -76.53300999645252, 3.456147494274215 ] } },
{ "type": "Feature", "properties": { "codigo": 310010303, "nombre": "Academia de Dibujo Profesional", "barrio": "Santa Mónica", "comuna": "02" }, "geometry": { "type": "Point", "coordinates": [ -76.53102907164174, 3.470390989183212 ] } },
{ "type": "Feature", "properties": { "codigo": 310010305, "nombre": "Parque de Las Orquideas", "barrio": "Urbanización La Merced", "comuna": "02" }, "geometry": { "type": "Point", "coordinates": [ -76.511806437813192, 3.477903491370077 ] } },
{ "type": "Feature", "properties": { "codigo": 310010402, "nombre": "Escuela Republica del Brasil", "barrio": "La Campiña", "comuna": "02" }, "geometry": { "type": "Point", "coordinates": [ -76.528639541855057, 3.482130663886507 ] } },
{ "type": "Feature", "properties": { "codigo": 310010405, "nombre": "Asamblea Departamental", "barrio": "Santa Rosa", "comuna": "03" }, "geometry": { "type": "Point", "coordinates": [ -76.533925283416011, 3.448349314693651 ] } },
{ "type": "Feature", "properties": { "codigo": 310010605, "nombre": "El Sena", "barrio": "El Sena", "comuna": "05" }, "geometry": { "type": "Point", "coordinates": [ -76.501073221553895, 3.467655018744616 ] } },
{ "type": "Feature", "properties": { "codigo": 310010705, "nombre": "Polideportivo Los Guaduales", "barrio": "Los Guaduales", "comuna": "06" }, "geometry": { "type": "Point", "coordinates": [ -76.501860738280755, 3.489657570862342 ] } },
{ "type": "Feature", "properties": { "codigo": 310010903, "nombre": "Unidad Deportiva Petecuy II", "barrio": "Petecuy Segunda Etapa", "comuna": "06" }, "geometry": { "type": "Point", "coordinates": [ -76.482537055510491, 3.47936457141744 ] } },
{ "type": "Feature", "properties": { "codigo": 310012003, "nombre": "Centro de Capacitación don Bosco", "barrio": "El Diamante", "comuna": "13" }, "geometry": { "type": "Point", "coordinates": [ -76.503103785689049, 3.421240684235491 ] } },
{ "type": "Feature", "properties": { "codigo": 310012101, "nombre": "SENA CDTI", "barrio": "Sector Laguna del Pondaje", "comuna": "13" }, "geometry": { "type": "Point", "coordinates": [ -76.491597049115711, 3.430247750863439 ] } },
{ "type": "Feature", "properties": { "codigo": 310012404, "nombre": "Istitución Educativa Llano Verde", "barrio": "Navarro", "comuna": "51" }, "geometry": { "type": "Point", "coordinates": [ -76.504756074427434, 3.39130261521612 ] } },
{ "type": "Feature", "properties": { "codigo": 310012604, "nombre": "UNIVALLE sede Melendez", "barrio": "Ciudad Universitaria", "comuna": "17" }, "geometry": { "type": "Point", "coordinates": [ -76.533538162810657, 3.375731694472895 ] } },
{ "type": "Feature", "properties": { "codigo": 310012701, "nombre": "CVC", "barrio": "Santa Anita-La Selva", "comuna": "17" }, "geometry": { "type": "Point", "coordinates": [ -76.538737371667665, 3.405863192740402 ] } },
{ "type": "Feature", "properties": { "codigo": 310012702, "nombre": "Centro Cultural Colombo Americano", "barrio": "Santa Anita-La Selva", "comuna": "17" }, "geometry": { "type": "Point", "coordinates": [ -76.537952994440786, 3.407585700492281 ] } },
{ "type": "Feature", "properties": { "codigo": 310012802, "nombre": "Universidad Cooperativa", "barrio": "Alférez Real", "comuna": "18" }, "geometry": { "type": "Point", "coordinates": [ -76.550860114599516, 3.390814274838763 ] } },
{ "type": "Feature", "properties": { "codigo": 310012904, "nombre": "Universidad Católica sede Meléndez", "barrio": "Sector Meléndez", "comuna": "18" }, "geometry": { "type": "Point", "coordinates": [ -76.54504286130593, 3.375450039792845 ] } },
{ "type": "Feature", "properties": { "codigo": 310013005, "nombre": "UNIVALLE sede San Fernando", "barrio": "Santa Isabel", "comuna": "19" }, "geometry": { "type": "Point", "coordinates": [ -76.547382481567467, 3.429504792969166 ] } },
{ "type": "Feature", "properties": { "codigo": 310013006, "nombre": "Unidad deportiva panamericana cancha de Tejo", "barrio": "Champagnat", "comuna": "19" }, "geometry": { "type": "Point", "coordinates": [ -76.537056654039219, 3.422890974061502 ] } },
{ "type": "Feature", "properties": { "codigo": 310013205, "nombre": "Nuevo Amanecer", "barrio": "Pizamos II", "comuna": "21" }, "geometry": { "type": "Point", "coordinates": [ -76.471694906405162, 3.405376388827116 ] } },
{ "type": "Feature", "properties": { "codigo": 310013303, "nombre": "Progresando Juntos", "barrio": "Valle Grande", "comuna": "21" }, "geometry": { "type": "Point", "coordinates": [ -76.472798937454073, 3.435927654745741 ] } },
{ "type": "Feature", "properties": { "codigo": 310019909, "nombre": "Universidad de San Buenaventura", "barrio": "Parcelaciones Pance", "comuna": "22" }, "geometry": { "type": "Point", "coordinates": [ -76.54376532658749, 3.344329900034894 ] } },
{ "type": "Feature", "properties": { "codigo": 310019913, "nombre": "Universidad Icesi", "barrio": "Parcelaciones Pance", "comuna": "22" }, "geometry": { "type": "Point", "coordinates": [ -76.530101510757092, 3.341866013596943 ] } },
{ "type": "Feature", "properties": { "codigo": 310019914, "nombre": "Coliseo del Pueblo", "barrio": "U.D.A. Galindo Plaza de Toros", "comuna": "19" }, "geometry": { "type": "Point", "coordinates": [ -76.551751562543842, 3.413289202679115 ] } },
{ "type": "Feature", "properties": { "codigo": 310019917, "nombre": "Carcel de Villanueva", "barrio": "Prados de Oriente", "comuna": "11" }, "geometry": { "type": "Point", "coordinates": [ -76.511602639885837, 3.431573218741168 ] } },
{ "type": "Feature", "properties": { "codigo": 310019941, "nombre": "Sede Cultural La Leonera", "barrio": "La Leonera", "comuna": "58" }, "geometry": { "type": "Point", "coordinates": [ -76.634356328682827, 3.454537298502503 ] } },
{ "type": "Feature", "properties": { "codigo": 310019947, "nombre": "San Carlos Borromeo", "barrio": "Alto Normandia", "comuna": "65" }, "geometry": { "type": "Point", "coordinates": [ -76.542963916885142, 3.457096870610933 ] } },
{ "type": "Feature", "properties": { "codigo": 310019925, "nombre": "U. Autonoma de Occidente", "barrio": "Bochalema", "comuna": "81" }, "geometry": { "type": "Point", "coordinates": [ -76.522011866475012, 3.353718406498485 ] } }
]
}
