{
"type": "FeatureCollection",
"name": "cali_perimetro",
"crs": { "type": "name", "properties": { "name": "urn:ogc:def:crs:OGC:1.3:CRS84" } },
"features": [
{ "type": "Feature", "properties": { "id_munici": 76001, "nombre": "SANTIAGO DE CALI" }, "geometry": { "type": "Polygon", "coordinates": [ [ [ -76.591730275130402, 3.546852140522978 ], [ -76.589646939458106, 3.546852294322382 ], [ -76.587410648300008, 3.546013710383861 ], [ -76.585909206229005, 3.546095674256276 ], [ -76.585968594369604, 3.544163846061676 ], [ -76.586575213915694, 3.542710753442973 ], [ -76.586633125108733, 3.541329392305207 ], [ -76.585908327084368, 3.534631445232871 ], [ -76.586058886937309, 3.531229786396727 ], [ -76.581869843869271, 3.525496460448605 ], [ -76.579295598082084, 3.523274889985181 ], [ -76.578066513444611, 3.522745567721985 ], [ -76.577500801756429, 3.521961452188648 ], [ -76.573811039476851, 3.519576225131716 ], [ -76.571600145166229, 3.520065689074531 ], [ -76.570369594209339, 3.519993244365454 ], [ -76.570093320901464, 3.520592248475082 ], [ -76.568532958720212, 3.520945955226524 ], [ -76.566581800331747, 3.520708007312062 ], [ -76.565582425810533, 3.518138185682547 ], [ -76.564634544122939, 3.516932948539552 ], [ -76.564484964069507, 3.516061524007241 ], [ -76.563064517037802, 3.513590554748024 ], [ -76.558001574621144, 3.513041525086603 ], [ -76.554480160877503, 3.511438911057678 ], [ -76.552539152170084, 3.5115270125242 ], [ -76.552148991077317, 3.50942946994735 ], [ -76.54959333872867, 3.509429366136641 ], [ -76.547939779170463, 3.506357426883502 ], [ -76.548382598660439, 3.506111446115851 ], [ -76.548465895878124, 3.505022924269002 ], [ -76.547657192215738, 3.502834081113372 ], [ -76.547947638848811, 3.502255123678164 ], [ -76.548018568796437, 3.499960426384364 ], [ -76.54654093384805, 3.496770506688365 ], [ -76.544963847071756, 3.495725568765828 ], [ -76.54437912117389, 3.495664218671937 ], [ -76.543447575539901, 3.496569621902136 ], [ -76.542685860658949, 3.499337361587144 ], [ -76.539810308511903, 3.500066811311171 ], [ -76.538541460157745, 3.499665191381927 ], [ -76.537327987729981, 3.50030032398093 ], [ -76.534966371979152, 3.499861838574182 ], [ -76.533983545020845, 3.500159623954985 ], [ -76.533333244426302, 3.499877206108942 ], [ -76.533295570967638, 3.499359280660173 ], [ -76.532501284655254, 3.499269898737978 ], [ -76.532115101922358, 3.498772477446018 ], [ -76.531201869375991, 3.498475756048719 ], [ -76.530228506073797, 3.497082963156086 ], [ -76.529550252882046, 3.497781230939841 ], [ -76.528397664022506, 3.497491635034279 ], [ -76.527008641983301, 3.497685614083383 ], [ -76.526319386711208, 3.497118610192332 ], [ -76.525050601913776, 3.49725415481529 ], [ -76.524521560723628, 3.49667456879758 ], [ -76.524118456687646, 3.49672879309959 ], [ -76.524223735526405, 3.496143827087517 ], [ -76.522359778269504, 3.494464292945753 ], [ -76.509420636048333, 3.490119413344304 ], [ -76.509009928635791, 3.491566780748308 ], [ -76.507810844239827, 3.491190505859554 ], [ -76.507479897655045, 3.49213787245731 ], [ -76.507001356077623, 3.492003894029146 ], [ -76.506649218816605, 3.492969202860942 ], [ -76.508522677443523, 3.493567435990437 ], [ -76.49750936536303, 3.498333069254963 ], [ -76.497251969675858, 3.498516749084949 ], [ -76.497105526312041, 3.500388834000442 ], [ -76.496305065329167, 3.50085204424876 ], [ -76.496809903563303, 3.501938513040073 ], [ -76.495669863121634, 3.501833374907721 ], [ -76.49505023155001, 3.502177264143311 ], [ -76.494898545941012, 3.502568372799627 ], [ -76.4954661568528, 3.502498768643476 ], [ -76.495647798167795, 3.502748401503739 ], [ -76.494612424976182, 3.504079832034944 ], [ -76.494469509085548, 3.503387563610409 ], [ -76.494071713667552, 3.503518868697531 ], [ -76.494386981434772, 3.505433842839887 ], [ -76.49175580241652, 3.505871133473367 ], [ -76.491381845646558, 3.505582371312827 ], [ -76.491339551553835, 3.500488307240865 ], [ -76.489908923610898, 3.499339875153245 ], [ -76.48565126603431, 3.497357179721408 ], [ -76.484069786633015, 3.495529680854724 ], [ -76.483280397450514, 3.49349158058586 ], [ -76.482836635259844, 3.489438877728883 ], [ -76.481763000897502, 3.487427551613564 ], [ -76.481146299049144, 3.483081460666503 ], [ -76.478896932491864, 3.481336102001661 ], [ -76.47826479793261, 3.477525924304885 ], [ -76.475613431232404, 3.47409309952509 ], [ -76.475550916326739, 3.470123669413183 ], [ -76.47392025894257, 3.466406662475054 ], [ -76.474930728043262, 3.464400030139857 ], [ -76.477018563238417, 3.462031283573179 ], [ -76.477270639382567, 3.460919151814831 ], [ -76.476407137671544, 3.458269753938695 ], [ -76.476308455008649, 3.455756075482737 ], [ -76.475606875593698, 3.453522626320841 ], [ -76.475877189930031, 3.450348927988175 ], [ -76.474729036146755, 3.448951897116781 ], [ -76.474555811398076, 3.448318396842629 ], [ -76.475084291300107, 3.44352016026483 ], [ -76.473737193870335, 3.441461322761656 ], [ -76.472933554809075, 3.441033720184979 ], [ -76.472192845900295, 3.441065277096175 ], [ -76.471199913446185, 3.44193616648959 ], [ -76.470407797897892, 3.445633635679287 ], [ -76.469461403465829, 3.44687461684887 ], [ -76.467735680905648, 3.448002618403665 ], [ -76.466081166310659, 3.44779217956263 ], [ -76.465305819023357, 3.447058413864557 ], [ -76.46473303015911, 3.445523013695635 ], [ -76.465953729716503, 3.441759575046802 ], [ -76.465655633680484, 3.440256640904782 ], [ -76.464951941580523, 3.439322333342588 ], [ -76.462383073963139, 3.437804210372499 ], [ -76.461351479020749, 3.436392259394103 ], [ -76.460910960432074, 3.430881303945926 ], [ -76.460005180358166, 3.427999054913059 ], [ -76.461516266399812, 3.421185957641333 ], [ -76.461550688559498, 3.420115754824344 ], [ -76.460702706605758, 3.416369284105436 ], [ -76.461788657377511, 3.41481502612483 ], [ -76.463773769156546, 3.413869014552759 ], [ -76.464594355871611, 3.41297146895297 ], [ -76.465745648691382, 3.409779624492835 ], [ -76.465424498159933, 3.408585501045112 ], [ -76.464394636176451, 3.407188383156108 ], [ -76.464417239100271, 3.4063464885287 ], [ -76.464718201052719, 3.405693969336821 ], [ -76.466703280789829, 3.403913414008831 ], [ -76.466977106358144, 3.402875148922357 ], [ -76.466471015293678, 3.400703936074245 ], [ -76.463941876899625, 3.396321196355798 ], [ -76.463872149024311, 3.395217220113469 ], [ -76.464588698748216, 3.390938274692517 ], [ -76.463297987222205, 3.387733858876857 ], [ -76.463284045914961, 3.386828883688093 ], [ -76.464300623509999, 3.384524093303372 ], [ -76.465937926895961, 3.382334384676402 ], [ -76.465856562637924, 3.37953602244554 ], [ -76.466088688661571, 3.379123354402078 ], [ -76.46705281135219, 3.379009772827846 ], [ -76.468189476444124, 3.379769408009639 ], [ -76.469654292974212, 3.379660343313151 ], [ -76.470710566193873, 3.37904922386786 ], [ -76.471473041911665, 3.377685818566303 ], [ -76.469159982881692, 3.374133450580848 ], [ -76.468947574432462, 3.372339935845226 ], [ -76.468479847609004, 3.371291503660106 ], [ -76.466530061983519, 3.369530403605057 ], [ -76.465955976496247, 3.368588198778835 ], [ -76.465611290917693, 3.366834846308096 ], [ -76.466022053680916, 3.364592041116602 ], [ -76.464383579695095, 3.359220590912846 ], [ -76.463253382012937, 3.357629974645492 ], [ -76.462292641882357, 3.357232213664328 ], [ -76.460930811712743, 3.357163383244901 ], [ -76.460423806357639, 3.356560478996314 ], [ -76.460480989083067, 3.355720767567849 ], [ -76.462354548250175, 3.353656284695463 ], [ -76.463367276092669, 3.351438575292223 ], [ -76.463539051155209, 3.349912087288692 ], [ -76.462748935501082, 3.346514003302417 ], [ -76.46406307020662, 3.344375319936385 ], [ -76.464182175097619, 3.342935131288685 ], [ -76.463509882340404, 3.341129060308018 ], [ -76.46040183761346, 3.337010525980316 ], [ -76.460232642069172, 3.334425985116904 ], [ -76.460854601579555, 3.332438038122896 ], [ -76.460798491422238, 3.329370685650091 ], [ -76.458837787328847, 3.325178766424167 ], [ -76.459275835122241, 3.324312764088759 ], [ -76.461336284740483, 3.32272498456143 ], [ -76.461769072476727, 3.321964599652516 ], [ -76.46183263011666, 3.320228383775226 ], [ -76.461068670944329, 3.317770593980063 ], [ -76.461835220997415, 3.31666537481482 ], [ -76.462991701553619, 3.316481235097501 ], [ -76.463837909416924, 3.316818607367332 ], [ -76.46642317030161, 3.320652356525214 ], [ -76.467044804113499, 3.321106865907862 ], [ -76.467977424100567, 3.320709349328943 ], [ -76.468344864288923, 3.319743742829517 ], [ -76.468316807513588, 3.318124944634025 ], [ -76.467688276553275, 3.315056862862133 ], [ -76.467716918752103, 3.313592745564392 ], [ -76.468252624203004, 3.311303294466201 ], [ -76.468967742570626, 3.310598722316238 ], [ -76.470013250898276, 3.310627249816993 ], [ -76.470832743898796, 3.311024986561258 ], [ -76.471817958577148, 3.31225587900675 ], [ -76.472496255970412, 3.314522667433994 ], [ -76.472454435592937, 3.317913823315424 ], [ -76.473379532091911, 3.319749238942871 ], [ -76.475739005710636, 3.320926812809544 ], [ -76.477266347160239, 3.320931655117344 ], [ -76.478092346630376, 3.320456906469766 ], [ -76.478571967672053, 3.319457180358964 ], [ -76.478382648389655, 3.317823821409884 ], [ -76.475839514789797, 3.314179528220619 ], [ -76.475348426494136, 3.310557823599878 ], [ -76.474082149798036, 3.307598563258906 ], [ -76.473546550798943, 3.305264455850188 ], [ -76.474004184580949, 3.304056844092429 ], [ -76.476296113210552, 3.302474136755448 ], [ -76.477412902650059, 3.301074386406491 ], [ -76.477464973490541, 3.300019354384334 ], [ -76.476658140297332, 3.297636535585843 ], [ -76.476708150892492, 3.294602098005721 ], [ -76.477672349156109, 3.293351880421021 ], [ -76.478972016818773, 3.292669575563231 ], [ -76.481054813359478, 3.292933365472986 ], [ -76.482187826150167, 3.293545854205705 ], [ -76.483299769411317, 3.294501970657369 ], [ -76.484130849314042, 3.296234375373142 ], [ -76.485108036945846, 3.30347109128226 ], [ -76.485721476954964, 3.304295671129173 ], [ -76.48707432651959, 3.305127889357244 ], [ -76.488755766289003, 3.305281214392205 ], [ -76.489762984791966, 3.30492216683513 ], [ -76.490144051666249, 3.303997037631196 ], [ -76.48970351198156, 3.300254281327603 ], [ -76.490084440407713, 3.297849980231589 ], [ -76.491139990778933, 3.296339592672657 ], [ -76.493984983394881, 3.293689735252091 ], [ -76.494348036764535, 3.292647755767103 ], [ -76.493981965002149, 3.290739511007406 ], [ -76.492768765011988, 3.289389806640251 ], [ -76.493626893943613, 3.288754332165752 ], [ -76.493708825685871, 3.287440183410316 ], [ -76.493436930883121, 3.286625426336349 ], [ -76.49263152594817, 3.285984822204627 ], [ -76.49253874455998, 3.285315774663847 ], [ -76.493899696519406, 3.282001349603615 ], [ -76.494755978570367, 3.281297860582475 ], [ -76.493924971480467, 3.279128725892611 ], [ -76.494700291186973, 3.278485074207408 ], [ -76.496135847862575, 3.279280275825631 ], [ -76.49676284929464, 3.279211706825349 ], [ -76.496351126869328, 3.278336734077663 ], [ -76.4968327774925, 3.277788110237933 ], [ -76.496828654620089, 3.276864904525461 ], [ -76.498002062126318, 3.276693240251983 ], [ -76.498423501276434, 3.276099819496354 ], [ -76.497742324105261, 3.274657417686133 ], [ -76.499253219197868, 3.273377652960365 ], [ -76.499665485509524, 3.273558803834528 ], [ -76.500341915504634, 3.275630430073585 ], [ -76.499871171932995, 3.276679172880409 ], [ -76.501063994926625, 3.277793680558226 ], [ -76.501454327434459, 3.279259689915201 ], [ -76.502093804545353, 3.278511093210848 ], [ -76.502628680408407, 3.278445816135648 ], [ -76.503981198700544, 3.279291655459453 ], [ -76.504473166042686, 3.280389192716392 ], [ -76.505452035819644, 3.280696553391887 ], [ -76.506026684981805, 3.280367087624082 ], [ -76.506791431422272, 3.27908314350869 ], [ -76.508460881661065, 3.277956718627118 ], [ -76.50976694704238, 3.277784822679406 ], [ -76.512036533493188, 3.278638273826072 ], [ -76.512619253435531, 3.277754754730418 ], [ -76.513563189631881, 3.277503848316779 ], [ -76.514389785101727, 3.278108352966616 ], [ -76.517303578909562, 3.279168467120209 ], [ -76.51806877481161, 3.280932793401654 ], [ -76.519011565485386, 3.280750458355364 ], [ -76.519813420635629, 3.281179276055737 ], [ -76.521579133194379, 3.283124818336637 ], [ -76.521438209880017, 3.284244165470695 ], [ -76.522090194207109, 3.284940340697475 ], [ -76.525264132128228, 3.28608936196833 ], [ -76.526446965985457, 3.285810362690571 ], [ -76.527010408011975, 3.286474001277951 ], [ -76.528235937715962, 3.285328404555236 ], [ -76.528476695200169, 3.286747965497957 ], [ -76.529048930042777, 3.287046878058215 ], [ -76.530617164965278, 3.286729657918005 ], [ -76.530494674300058, 3.285861845428568 ], [ -76.530746106144633, 3.285629941410641 ], [ -76.532758568861283, 3.285853283454013 ], [ -76.533826178786683, 3.28504792612553 ], [ -76.533666931421223, 3.284788829730573 ], [ -76.533017513311577, 3.284912368555857 ], [ -76.533222879568342, 3.283936732348278 ], [ -76.532843269883841, 3.28309439018045 ], [ -76.533954979067289, 3.283443045928343 ], [ -76.535487257456722, 3.283206399117344 ], [ -76.534649145815422, 3.282787415644889 ], [ -76.53570222164754, 3.28209198290663 ], [ -76.536309592552314, 3.280565100360401 ], [ -76.537557685297273, 3.280372756769262 ], [ -76.539246702353594, 3.281744268918943 ], [ -76.539855507735197, 3.281236197352903 ], [ -76.539916930575828, 3.280438785583109 ], [ -76.542269978946536, 3.279814024332536 ], [ -76.542762297604867, 3.27902763992495 ], [ -76.544019818449129, 3.278193336985376 ], [ -76.544486237525845, 3.278294509179043 ], [ -76.544287873424622, 3.279343327687824 ], [ -76.542448239870325, 3.282020571939042 ], [ -76.543043587688956, 3.283073200820756 ], [ -76.543033614639413, 3.283653386195437 ], [ -76.543773049957025, 3.284279757859229 ], [ -76.54352876922502, 3.282665536948239 ], [ -76.544498426808701, 3.282799723420084 ], [ -76.545385779008313, 3.283727968825506 ], [ -76.545308962294285, 3.284243343341744 ], [ -76.546142137151662, 3.285518110961053 ], [ -76.546164128257487, 3.284502846956624 ], [ -76.546951643693163, 3.282993806037695 ], [ -76.547538373756325, 3.283376431800884 ], [ -76.547936814753257, 3.283002793861634 ], [ -76.548462686246324, 3.283158132649906 ], [ -76.548519570930424, 3.283980314604388 ], [ -76.549332917214059, 3.283910866287922 ], [ -76.549621335667084, 3.285638386196932 ], [ -76.552132635035434, 3.28685885130521 ], [ -76.552518385146314, 3.285631501703887 ], [ -76.553175260582933, 3.285656336564847 ], [ -76.552893303566179, 3.285383862817663 ], [ -76.553248520980532, 3.285178019926515 ], [ -76.55311851101213, 3.284599145815061 ], [ -76.554543661238455, 3.283921634830397 ], [ -76.554499031600898, 3.284635059076476 ], [ -76.554820983482387, 3.284541653312637 ], [ -76.55521511427412, 3.282901498859459 ], [ -76.555991993233278, 3.283114457609692 ], [ -76.556415151155178, 3.282685826629621 ], [ -76.557123391536209, 3.282932916751341 ], [ -76.5584539785484, 3.282765759576223 ], [ -76.558309499046103, 3.281282561618033 ], [ -76.559221283960937, 3.281289591204759 ], [ -76.559218984226376, 3.283249137988232 ], [ -76.559843598881656, 3.284884209810274 ], [ -76.562613015125763, 3.287058307102624 ], [ -76.563661134052566, 3.286356795417046 ], [ -76.563981899525032, 3.286504444728094 ], [ -76.564426635274856, 3.287251650228658 ], [ -76.564324420342942, 3.287726854116615 ], [ -76.565714707109976, 3.289770050509657 ], [ -76.565291026210843, 3.290149271455769 ], [ -76.565378604172992, 3.290894024820143 ], [ -76.566011424459575, 3.291066180406121 ], [ -76.565333755653199, 3.291676453153674 ], [ -76.566136992907801, 3.292353891352643 ], [ -76.566783411906485, 3.293782468581954 ], [ -76.567327740466823, 3.294058736495029 ], [ -76.566983725139821, 3.294494710528087 ], [ -76.566400104906364, 3.294529468977077 ], [ -76.567211963989322, 3.295789233930018 ], [ -76.566072376139772, 3.297416639565795 ], [ -76.566559502523077, 3.2989771826464 ], [ -76.567749438419341, 3.299691808252889 ], [ -76.569064398606344, 3.299422879894109 ], [ -76.570780054844676, 3.299854552389058 ], [ -76.572465052558144, 3.302544974285909 ], [ -76.574949291087165, 3.302950601342248 ], [ -76.575624519416152, 3.3037361623622 ], [ -76.576202762601682, 3.30317843985844 ], [ -76.577123969230826, 3.303030712456778 ], [ -76.577536000138494, 3.303908605971003 ], [ -76.57848124400428, 3.304344677726187 ], [ -76.580154201615358, 3.303799516993887 ], [ -76.580830009744659, 3.304872381928558 ], [ -76.580760878988457, 3.306798735524752 ], [ -76.581401097248005, 3.307544826587121 ], [ -76.581434488206057, 3.308502899397907 ], [ -76.583749770779562, 3.309029902295422 ], [ -76.585085882434115, 3.308365537249124 ], [ -76.586468764725808, 3.308788108665787 ], [ -76.588301544331998, 3.308825955822562 ], [ -76.58988425406956, 3.307021449157088 ], [ -76.594324873705659, 3.30798466258781 ], [ -76.595750293192978, 3.307696174366149 ], [ -76.597376953122705, 3.30847331737401 ], [ -76.600965107322963, 3.308208713529631 ], [ -76.602269708167469, 3.307531451244277 ], [ -76.604497961060815, 3.308641127918746 ], [ -76.606621878339212, 3.308622813209201 ], [ -76.607468842735258, 3.310450011835164 ], [ -76.608483940867046, 3.311540678381174 ], [ -76.611118082388558, 3.31195894966592 ], [ -76.614418989943275, 3.310461569503278 ], [ -76.616294528233354, 3.307984156426541 ], [ -76.616555885959031, 3.306740875899804 ], [ -76.618958259221799, 3.306278883392006 ], [ -76.620931430440578, 3.304777424506636 ], [ -76.623662781482111, 3.305696075083882 ], [ -76.624287093616246, 3.306581246500068 ], [ -76.625953798304977, 3.306738003007375 ], [ -76.627235843436551, 3.307354218162053 ], [ -76.630992759350306, 3.306614519580876 ], [ -76.632979558893908, 3.303671406082319 ], [ -76.635779177433974, 3.301737699267133 ], [ -76.640540462831652, 3.29979547037688 ], [ -76.642843718036985, 3.299564910852725 ], [ -76.64796612185873, 3.300339666871424 ], [ -76.649748306540474, 3.301795522047774 ], [ -76.65251802478592, 3.303403184239202 ], [ -76.656478408700494, 3.304062758634569 ], [ -76.658125244577263, 3.30661840946934 ], [ -76.658396287046045, 3.307917254849293 ], [ -76.660022234794681, 3.309111168402637 ], [ -76.660762286145186, 3.310179548225845 ], [ -76.662836538734055, 3.314421558081338 ], [ -76.666150853253541, 3.315426786168882 ], [ -76.667641108114879, 3.314913458915763 ], [ -76.670720870973099, 3.314829345220144 ], [ -76.673076173958066, 3.313949308348244 ], [ -76.67476455429437, 3.314179586131672 ], [ -76.677500428251477, 3.315310568525505 ], [ -76.680981411182302, 3.31555118776103 ], [ -76.682799976948985, 3.315132038893383 ], [ -76.684404891402963, 3.314199635076774 ], [ -76.685582632837765, 3.314356618916178 ], [ -76.687088514939177, 3.313476635760599 ], [ -76.688026490418707, 3.313455557680173 ], [ -76.689422960666889, 3.31286881029764 ], [ -76.691913852222839, 3.312858086050366 ], [ -76.697202844918877, 3.311380611303199 ], [ -76.697383131950446, 3.317943654922877 ], [ -76.697925440284592, 3.319644897061773 ], [ -76.696476431674327, 3.324559591527825 ], [ -76.696335304490646, 3.32531666137072 ], [ -76.696686372763708, 3.326452236921241 ], [ -76.696061591337369, 3.327828809027874 ], [ -76.696232899581943, 3.328646099151045 ], [ -76.694649689360887, 3.332887602479345 ], [ -76.695630250649515, 3.336569625889985 ], [ -76.695056938354199, 3.338840923122175 ], [ -76.695711964170158, 3.340217349356551 ], [ -76.694869083026049, 3.343065102692064 ], [ -76.697240518177765, 3.345258643346975 ], [ -76.698212358363634, 3.347400702987533 ], [ -76.69900852629425, 3.348045839920791 ], [ -76.699907549068513, 3.349516892826049 ], [ -76.700571679327595, 3.352336287450131 ], [ -76.700102867249569, 3.354394170882771 ], [ -76.701132523110871, 3.35547470634695 ], [ -76.70172751892018, 3.356647267602016 ], [ -76.701750652755877, 3.358578645202947 ], [ -76.699937760505918, 3.36133221419065 ], [ -76.699228551941118, 3.361516244695437 ], [ -76.696529197555066, 3.364114784014088 ], [ -76.695940268906469, 3.366385376684947 ], [ -76.694418966721827, 3.367673112135491 ], [ -76.693738563126388, 3.36975976551857 ], [ -76.693567210497577, 3.371898142452431 ], [ -76.69355599589268, 3.374185905549467 ], [ -76.693922192394083, 3.375312509766544 ], [ -76.693642271783503, 3.378422275871762 ], [ -76.692601510365904, 3.380825156352153 ], [ -76.691228888932926, 3.382503792553838 ], [ -76.69129197055419, 3.384142009042776 ], [ -76.690880336795601, 3.385452646236936 ], [ -76.689724958597466, 3.386200002774762 ], [ -76.688546910608252, 3.38807407993445 ], [ -76.688993144939232, 3.388959228569006 ], [ -76.690194368375572, 3.389637390857447 ], [ -76.689315822374837, 3.393101628736201 ], [ -76.691346090718397, 3.394462386150938 ], [ -76.691988724786967, 3.395647483403376 ], [ -76.692902922392491, 3.396107356493767 ], [ -76.693556685902266, 3.398212676081541 ], [ -76.695888443573054, 3.401408646757944 ], [ -76.696417084109754, 3.403117764212639 ], [ -76.697275163514604, 3.403537306486692 ], [ -76.698035115775554, 3.408220952366595 ], [ -76.698044568836721, 3.412491251163091 ], [ -76.699349148912063, 3.416146956884636 ], [ -76.701019627069869, 3.418629984583374 ], [ -76.702529839855373, 3.419296580213153 ], [ -76.705196237390297, 3.426791917486744 ], [ -76.707175614702294, 3.428608051037822 ], [ -76.706781531051249, 3.433695273365575 ], [ -76.70601521198914, 3.434615037504677 ], [ -76.70489413811454, 3.435190047405676 ], [ -76.705449315205527, 3.437943333365947 ], [ -76.705455433837102, 3.441432477803356 ], [ -76.704117073135578, 3.442651260075492 ], [ -76.702916180933229, 3.445399036970053 ], [ -76.700696689219711, 3.445180883381981 ], [ -76.697922478498043, 3.445474361684518 ], [ -76.696378217239115, 3.447428877106352 ], [ -76.694164719570566, 3.449320312130835 ], [ -76.692517423177719, 3.45028614910924 ], [ -76.692265898003612, 3.452194599247175 ], [ -76.692603801211504, 3.455948114355151 ], [ -76.691517156547349, 3.457327841253616 ], [ -76.690545099055853, 3.461386099225081 ], [ -76.689366770904741, 3.461374780914408 ], [ -76.688651776876512, 3.462058868138277 ], [ -76.686398050649359, 3.462875352817682 ], [ -76.685528751833004, 3.464266493734176 ], [ -76.684687910633386, 3.464858616161937 ], [ -76.683246377053848, 3.464778301392568 ], [ -76.683486521099255, 3.463444726809933 ], [ -76.683120350519658, 3.462835418823222 ], [ -76.679699596944289, 3.462812793825548 ], [ -76.677142753556396, 3.463795925830397 ], [ -76.676193124805607, 3.463255683109249 ], [ -76.675220540028377, 3.461542812903119 ], [ -76.674522622141637, 3.461496889257138 ], [ -76.672966811897751, 3.462451239421656 ], [ -76.670758823647702, 3.463129722237187 ], [ -76.66769865965621, 3.465205115009405 ], [ -76.667206795694256, 3.466170810647283 ], [ -76.665422224175003, 3.468021877498545 ], [ -76.663134071018945, 3.467711664730938 ], [ -76.66250480778578, 3.46737829041145 ], [ -76.662115785661015, 3.466550626637853 ], [ -76.658866586473707, 3.466128653231992 ], [ -76.657716835724912, 3.466688915731427 ], [ -76.655560314621056, 3.466781043804436 ], [ -76.653938154407726, 3.467265184081922 ], [ -76.650469302693963, 3.467264214557254 ], [ -76.648799020142832, 3.468264522656235 ], [ -76.648524483893482, 3.469046244475565 ], [ -76.647677883226635, 3.469034852292662 ], [ -76.64635085778248, 3.470012104672161 ], [ -76.645618708185623, 3.471322738392179 ], [ -76.644909436594531, 3.471920611378001 ], [ -76.644005870983918, 3.476358226064182 ], [ -76.641317499922792, 3.479899230968408 ], [ -76.640104845106237, 3.481198445373284 ], [ -76.638251468374676, 3.4822217000564 ], [ -76.636395846087609, 3.484267004414923 ], [ -76.634001428080182, 3.485694947984896 ], [ -76.629975455320732, 3.487228732653597 ], [ -76.629113964641789, 3.487885724854893 ], [ -76.627986918133359, 3.489428488495899 ], [ -76.626462400685114, 3.492856165428625 ], [ -76.626410769825455, 3.493842943453436 ], [ -76.62517045201804, 3.495245201900385 ], [ -76.624860349154503, 3.496751269727709 ], [ -76.623413324572923, 3.499503827622255 ], [ -76.622689910195731, 3.502671794695735 ], [ -76.622806420682451, 3.508981748162657 ], [ -76.623361679092326, 3.511405613625868 ], [ -76.6230622508388, 3.514757937235583 ], [ -76.621904900592327, 3.517309863362528 ], [ -76.620366171156405, 3.518267656381739 ], [ -76.620093854080821, 3.519184438246217 ], [ -76.619290462700789, 3.519731783721661 ], [ -76.618085353628175, 3.522010047691656 ], [ -76.617731366531885, 3.523675971963755 ], [ -76.618214821445704, 3.525454754159924 ], [ -76.617438721360642, 3.526604097704011 ], [ -76.617997064336237, 3.528848115465124 ], [ -76.616676295357436, 3.531314492603082 ], [ -76.616063482805089, 3.531772897602488 ], [ -76.613560680172043, 3.531383422032047 ], [ -76.613389308837299, 3.531938464739589 ], [ -76.610284833752914, 3.53442681026233 ], [ -76.609637377070371, 3.536053668168249 ], [ -76.607447231918741, 3.539364885803315 ], [ -76.606742616685594, 3.54089605520232 ], [ -76.606649971425625, 3.542086529083512 ], [ -76.604536314138684, 3.542167069490137 ], [ -76.6039102667295, 3.543119156853973 ], [ -76.60227637255386, 3.54408413804181 ], [ -76.600699750299, 3.546850523795543 ], [ -76.599810371691717, 3.547189419805464 ], [ -76.598869843083918, 3.546579448037701 ], [ -76.596271108890477, 3.54603748860056 ], [ -76.596182635209701, 3.546540789937849 ], [ -76.594504173180454, 3.547952407835504 ], [ -76.592551833839465, 3.548526724625887 ], [ -76.591730275130402, 3.546852140522978 ] ] ] } }
]
}
